{
"type": "FeatureCollection",
"name": "grid_vanvan",
"crs": { "type": "name", "properties": { "name": "urn:ogc:def:crs:OGC:1.3:CRS84" } },
"features": [
{ "type": "Feature", "properties": { "id": "21", "left": 199832.4743, "top": 668689.34209999989, "right": 199932.4743, "bottom": 668589.34209999989, "size": 0.0 }, "geometry": { "type": "MultiPolygon", "coordinates": [ [ [ [ 14.440174036251173, 53.796059881247523 ], [ 14.441687837141806, 53.796117548734891 ], [ 14.441785221615849, 53.795221302515209 ], [ 14.440271452792768, 53.795163636908867 ], [ 14.440174036251173, 53.796059881247523 ] ] ] ] } },
{ "type": "Feature", "properties": { "id": "22", "left": 199832.4743, "top": 668589.34209999989, "right": 199932.4743, "bottom": 668489.34209999989, "size": 0.0 }, "geometry": { "type": "MultiPolygon", "coordinates": [ [ [ [ 14.440271452792768, 53.795163636908867 ], [ 14.441785221615849, 53.795221302515209 ], [ 14.441882600822685, 53.794325056039398 ], [ 14.440368864065437, 53.794267392314005 ], [ 14.440271452792768, 53.795163636908867 ] ] ] ] } },
{ "type": "Feature", "properties": { "id": "23", "left": 199832.4743, "top": 668489.34209999989, "right": 199932.4743, "bottom": 668389.34209999989, "size": 0.0 }, "geometry": { "type": "MultiPolygon", "coordinates": [ [ [ [ 14.440368864065437, 53.794267392314005 ], [ 14.441882600822685, 53.794325056039398 ], [ 14.441979974762697, 53.793428809307457 ], [ 14.440466270069566, 53.793371147462949 ], [ 14.440368864065437, 53.794267392314005 ] ] ] ] } },
{ "type": "Feature", "properties": { "id": "24", "left": 199832.4743, "top": 668389.34209999989, "right": 199932.4743, "bottom": 668289.34209999989, "size": 0.0 }, "geometry": { "type": "MultiPolygon", "coordinates": [ [ [ [ 14.440466270069566, 53.793371147462949 ], [ 14.441979974762697, 53.793428809307457 ], [ 14.442077343436267, 53.792532562319401 ], [ 14.440563670805535, 53.792474902355686 ], [ 14.440466270069566, 53.793371147462949 ] ] ] ] } },
{ "type": "Feature", "properties": { "id": "25", "left": 199832.4743, "top": 668289.34209999989, "right": 199932.4743, "bottom": 668189.34209999989, "size": 0.0 }, "geometry": { "type": "MultiPolygon", "coordinates": [ [ [ [ 14.440563670805535, 53.792474902355686 ], [ 14.442077343436267, 53.792532562319401 ], [ 14.442174706843776, 53.791636315075266 ], [ 14.440661066273732, 53.791578656992243 ], [ 14.440563670805535, 53.792474902355686 ] ] ] ] } },
{ "type": "Feature", "properties": { "id": "26", "left": 199832.4743, "top": 668189.34209999989, "right": 199932.4743, "bottom": 668089.34209999989, "size": 0.0 }, "geometry": { "type": "MultiPolygon", "coordinates": [ [ [ [ 14.440661066273732, 53.791578656992243 ], [ 14.442174706843776, 53.791636315075266 ], [ 14.442272064985612, 53.790740067575015 ], [ 14.44075845647453, 53.790682411372636 ], [ 14.440661066273732, 53.791578656992243 ] ] ] ] } },
{ "type": "Feature", "properties": { "id": "27", "left": 199832.4743, "top": 668089.34209999989, "right": 199932.4743, "bottom": 667989.34209999989, "size": 0.0 }, "geometry": { "type": "MultiPolygon", "coordinates": [ [ [ [ 14.44075845647453, 53.790682411372636 ], [ 14.442272064985612, 53.790740067575015 ], [ 14.442369417862155, 53.789843819818692 ], [ 14.440855841408325, 53.789786165496871 ], [ 14.44075845647453, 53.790682411372636 ] ] ] ] } },
{ "type": "Feature", "properties": { "id": "36", "left": 199932.4743, "top": 668789.34209999989, "right": 200032.4743, "bottom": 668689.34209999989, "size": 0.0 }, "geometry": { "type": "MultiPolygon", "coordinates": [ [ [ [ 14.441590447400168, 53.797013794698451 ], [ 14.443104285628047, 53.797071445000469 ], [ 14.443201643300034, 53.79617519715643 ], [ 14.441687837141806, 53.796117548734891 ], [ 14.441590447400168, 53.797013794698451 ] ] ] ] } },
{ "type": "Feature", "properties": { "id": "37", "left": 199932.4743, "top": 668689.34209999989, "right": 200032.4743, "bottom": 668589.34209999989, "size": 0.0 }, "geometry": { "type": "MultiPolygon", "coordinates": [ [ [ [ 14.441687837141806, 53.796117548734891 ], [ 14.443201643300034, 53.79617519715643 ], [ 14.443298995706142, 53.795278949056332 ], [ 14.441785221615849, 53.795221302515209 ], [ 14.441687837141806, 53.796117548734891 ] ] ] ] } },
{ "type": "Feature", "properties": { "id": "38", "left": 199932.4743, "top": 668589.34209999989, "right": 200032.4743, "bottom": 668489.34209999989, "size": 0.0 }, "geometry": { "type": "MultiPolygon", "coordinates": [ [ [ [ 14.441785221615849, 53.795221302515209 ], [ 14.443298995706142, 53.795278949056332 ], [ 14.443396342846761, 53.794382700700183 ], [ 14.441882600822685, 53.794325056039398 ], [ 14.441785221615849, 53.795221302515209 ] ] ] ] } },
{ "type": "Feature", "properties": { "id": "39", "left": 199932.4743, "top": 668489.34209999989, "right": 200032.4743, "bottom": 668389.34209999989, "size": 0.0 }, "geometry": { "type": "MultiPolygon", "coordinates": [ [ [ [ 14.441882600822685, 53.794325056039398 ], [ 14.443396342846761, 53.794382700700183 ], [ 14.44349368472227, 53.793486452087997 ], [ 14.441979974762697, 53.793428809307457 ], [ 14.441882600822685, 53.794325056039398 ] ] ] ] } },
{ "type": "Feature", "properties": { "id": "40", "left": 199932.4743, "top": 668389.34209999989, "right": 200032.4743, "bottom": 668289.34209999989, "size": 0.0 }, "geometry": { "type": "MultiPolygon", "coordinates": [ [ [ [ 14.441979974762697, 53.793428809307457 ], [ 14.44349368472227, 53.793486452087997 ], [ 14.443591021333054, 53.792590203219767 ], [ 14.442077343436267, 53.792532562319401 ], [ 14.441979974762697, 53.793428809307457 ] ] ] ] } },
{ "type": "Feature", "properties": { "id": "41", "left": 199932.4743, "top": 668289.34209999989, "right": 200032.4743, "bottom": 668189.34209999989, "size": 0.0 }, "geometry": { "type": "MultiPolygon", "coordinates": [ [ [ [ 14.442077343436267, 53.792532562319401 ], [ 14.443591021333054, 53.792590203219767 ], [ 14.443688352679496, 53.791693954095528 ], [ 14.442174706843776, 53.791636315075266 ], [ 14.442077343436267, 53.792532562319401 ] ] ] ] } },
{ "type": "Feature", "properties": { "id": "42", "left": 199932.4743, "top": 668189.34209999989, "right": 200032.4743, "bottom": 668089.34209999989, "size": 0.0 }, "geometry": { "type": "MultiPolygon", "coordinates": [ [ [ [ 14.442174706843776, 53.791636315075266 ], [ 14.443688352679496, 53.791693954095528 ], [ 14.44378567876198, 53.790797704715267 ], [ 14.442272064985612, 53.790740067575015 ], [ 14.442174706843776, 53.791636315075266 ] ] ] ] } },
{ "type": "Feature", "properties": { "id": "43", "left": 199932.4743, "top": 668089.34209999989, "right": 200032.4743, "bottom": 667989.34209999989, "size": 0.0 }, "geometry": { "type": "MultiPolygon", "coordinates": [ [ [ [ 14.442272064985612, 53.790740067575015 ], [ 14.44378567876198, 53.790797704715267 ], [ 14.443882999580891, 53.789901455078997 ], [ 14.442369417862155, 53.789843819818692 ], [ 14.442272064985612, 53.790740067575015 ] ] ] ] } },
{ "type": "Feature", "properties": { "id": "44", "left": 199932.4743, "top": 667989.34209999989, "right": 200032.4743, "bottom": 667889.34209999989, "size": 0.0 }, "geometry": { "type": "MultiPolygon", "coordinates": [ [ [ [ 14.442369417862155, 53.789843819818692 ], [ 14.443882999580891, 53.789901455078997 ], [ 14.443980315136608, 53.78900520518674 ], [ 14.442466765473791, 53.788947571806283 ], [ 14.442369417862155, 53.789843819818692 ] ] ] ] } },
{ "type": "Feature", "properties": { "id": "45", "left": 199932.4743, "top": 667889.34209999989, "right": 200032.4743, "bottom": 667789.34209999989, "size": 0.0 }, "geometry": { "type": "MultiPolygon", "coordinates": [ [ [ [ 14.442466765473791, 53.788947571806283 ], [ 14.443980315136608, 53.78900520518674 ], [ 14.444077625429514, 53.788108955038481 ], [ 14.4425641078209, 53.788051323537793 ], [ 14.442466765473791, 53.788947571806283 ] ] ] ] } },
{ "type": "Feature", "properties": { "id": "50", "left": 200032.4743, "top": 668989.34209999989, "right": 200132.4743, "bottom": 668889.34209999989, "size": 0.0 }, "geometry": { "type": "MultiPolygon", "coordinates": [ [ [ [ 14.442909554484913, 53.798863939920402 ], [ 14.444423462124272, 53.798921574915838 ], [ 14.44452079825569, 53.798025325703875 ], [ 14.443006922689802, 53.797967692588472 ], [ 14.442909554484913, 53.798863939920402 ] ] ] ] } },
{ "type": "Feature", "properties": { "id": "51", "left": 200032.4743, "top": 668889.34209999989, "right": 200132.4743, "bottom": 668789.34209999989, "size": 0.0 }, "geometry": { "type": "MultiPolygon", "coordinates": [ [ [ [ 14.443006922689802, 53.797967692588472 ], [ 14.44452079825569, 53.798025325703875 ], [ 14.444618129122183, 53.797129076235926 ], [ 14.443104285628047, 53.797071445000469 ], [ 14.443006922689802, 53.797967692588472 ] ] ] ] } },
{ "type": "Feature", "properties": { "id": "52", "left": 200032.4743, "top": 668789.34209999989, "right": 200132.4743, "bottom": 668689.34209999989, "size": 0.0 }, "geometry": { "type": "MultiPolygon", "coordinates": [ [ [ [ 14.443104285628047, 53.797071445000469 ], [ 14.444618129122183, 53.797129076235926 ], [ 14.444715454724133, 53.796232826511996 ], [ 14.443201643300034, 53.79617519715643 ], [ 14.443104285628047, 53.797071445000469 ] ] ] ] } },
{ "type": "Feature", "properties": { "id": "53", "left": 200032.4743, "top": 668689.34209999989, "right": 200132.4743, "bottom": 668589.34209999989, "size": 0.0 }, "geometry": { "type": "MultiPolygon", "coordinates": [ [ [ [ 14.443201643300034, 53.79617519715643 ], [ 14.444715454724133, 53.796232826511996 ], [ 14.444812775061925, 53.795336576532101 ], [ 14.443298995706142, 53.795278949056332 ], [ 14.443201643300034, 53.79617519715643 ] ] ] ] } },
{ "type": "Feature", "properties": { "id": "54", "left": 200032.4743, "top": 668589.34209999989, "right": 200132.4743, "bottom": 668489.34209999989, "size": 0.0 }, "geometry": { "type": "MultiPolygon", "coordinates": [ [ [ [ 14.443298995706142, 53.795278949056332 ], [ 14.444812775061925, 53.795336576532101 ], [ 14.444910090135942, 53.794440326296233 ], [ 14.443396342846761, 53.794382700700183 ], [ 14.443298995706142, 53.795278949056332 ] ] ] ] } },
{ "type": "Feature", "properties": { "id": "55", "left": 200032.4743, "top": 668489.34209999989, "right": 200132.4743, "bottom": 668389.34209999989, "size": 0.0 }, "geometry": { "type": "MultiPolygon", "coordinates": [ [ [ [ 14.443396342846761, 53.794382700700183 ], [ 14.444910090135942, 53.794440326296233 ], [ 14.445007399946569, 53.793544075804405 ], [ 14.44349368472227, 53.793486452087997 ], [ 14.443396342846761, 53.794382700700183 ] ] ] ] } },
{ "type": "Feature", "properties": { "id": "56", "left": 200032.4743, "top": 668389.34209999989, "right": 200132.4743, "bottom": 668289.34209999989, "size": 1.0 }, "geometry": { "type": "MultiPolygon", "coordinates": [ [ [ [ 14.44349368472227, 53.793486452087997 ], [ 14.445007399946569, 53.793544075804405 ], [ 14.445104704494188, 53.792647825056626 ], [ 14.443591021333054, 53.792590203219767 ], [ 14.44349368472227, 53.793486452087997 ] ] ] ] } },
{ "type": "Feature", "properties": { "id": "57", "left": 200032.4743, "top": 668289.34209999989, "right": 200132.4743, "bottom": 668189.34209999989, "size": 0.0 }, "geometry": { "type": "MultiPolygon", "coordinates": [ [ [ [ 14.443591021333054, 53.792590203219767 ], [ 14.445104704494188, 53.792647825056626 ], [ 14.445202003779178, 53.791751574052903 ], [ 14.443688352679496, 53.791693954095528 ], [ 14.443591021333054, 53.792590203219767 ] ] ] ] } },
{ "type": "Feature", "properties": { "id": "58", "left": 200032.4743, "top": 668189.34209999989, "right": 200132.4743, "bottom": 668089.34209999989, "size": 0.0 }, "geometry": { "type": "MultiPolygon", "coordinates": [ [ [ [ 14.443688352679496, 53.791693954095528 ], [ 14.445202003779178, 53.791751574052903 ], [ 14.445299297801929, 53.790855322793242 ], [ 14.44378567876198, 53.790797704715267 ], [ 14.443688352679496, 53.791693954095528 ] ] ] ] } },
{ "type": "Feature", "properties": { "id": "59", "left": 200032.4743, "top": 668089.34209999989, "right": 200132.4743, "bottom": 667989.34209999989, "size": 0.0 }, "geometry": { "type": "MultiPolygon", "coordinates": [ [ [ [ 14.44378567876198, 53.790797704715267 ], [ 14.445299297801929, 53.790855322793242 ], [ 14.44539658656282, 53.789959071277657 ], [ 14.443882999580891, 53.789901455078997 ], [ 14.44378567876198, 53.790797704715267 ] ] ] ] } },
{ "type": "Feature", "properties": { "id": "60", "left": 200032.4743, "top": 667989.34209999989, "right": 200132.4743, "bottom": 667889.34209999989, "size": 0.0 }, "geometry": { "type": "MultiPolygon", "coordinates": [ [ [ [ 14.443882999580891, 53.789901455078997 ], [ 14.44539658656282, 53.789959071277657 ], [ 14.445493870062235, 53.78906281950615 ], [ 14.443980315136608, 53.78900520518674 ], [ 14.443882999580891, 53.789901455078997 ] ] ] ] } },
{ "type": "Feature", "properties": { "id": "61", "left": 200032.4743, "top": 667889.34209999989, "right": 200132.4743, "bottom": 667789.34209999989, "size": 0.0 }, "geometry": { "type": "MultiPolygon", "coordinates": [ [ [ [ 14.443980315136608, 53.78900520518674 ], [ 14.445493870062235, 53.78906281950615 ], [ 14.44559114830056, 53.78816656747874 ], [ 14.444077625429514, 53.788108955038481 ], [ 14.443980315136608, 53.78900520518674 ] ] ] ] } },
{ "type": "Feature", "properties": { "id": "62", "left": 200032.4743, "top": 667789.34209999989, "right": 200132.4743, "bottom": 667689.34209999989, "size": 0.0 }, "geometry": { "type": "MultiPolygon", "coordinates": [ [ [ [ 14.444077625429514, 53.788108955038481 ], [ 14.44559114830056, 53.78816656747874 ], [ 14.445688421278172, 53.7872703151954 ], [ 14.444174930459999, 53.787212704634229 ], [ 14.444077625429514, 53.788108955038481 ] ] ] ] } },
{ "type": "Feature", "properties": { "id": "66", "left": 200132.4743, "top": 668989.34209999989, "right": 200232.4743, "bottom": 668889.34209999989, "size": 0.0 }, "geometry": { "type": "MultiPolygon", "coordinates": [ [ [ [ 14.444423462124272, 53.798921574915838 ], [ 14.44593737502894, 53.798979190843305 ], [ 14.446034679086505, 53.798082939751929 ], [ 14.44452079825569, 53.798025325703875 ], [ 14.444423462124272, 53.798921574915838 ] ] ] ] } },
{ "type": "Feature", "properties": { "id": "67", "left": 200132.4743, "top": 668889.34209999989, "right": 200232.4743, "bottom": 668789.34209999989, "size": 0.0 }, "geometry": { "type": "MultiPolygon", "coordinates": [ [ [ [ 14.44452079825569, 53.798025325703875 ], [ 14.446034679086505, 53.798082939751929 ], [ 14.44613197788086, 53.797186688404629 ], [ 14.444618129122183, 53.797129076235926 ], [ 14.44452079825569, 53.798025325703875 ] ] ] ] } },
{ "type": "Feature", "properties": { "id": "68", "left": 200132.4743, "top": 668789.34209999989, "right": 200232.4743, "bottom": 668689.34209999989, "size": 1.0 }, "geometry": { "type": "MultiPolygon", "coordinates": [ [ [ [ 14.444618129122183, 53.797129076235926 ], [ 14.44613197788086, 53.797186688404629 ], [ 14.446229271412394, 53.796290436801449 ], [ 14.444715454724133, 53.796232826511996 ], [ 14.444618129122183, 53.797129076235926 ] ] ] ] } },
{ "type": "Feature", "properties": { "id": "69", "left": 200132.4743, "top": 668689.34209999989, "right": 200232.4743, "bottom": 668589.34209999989, "size": 1.0 }, "geometry": { "type": "MultiPolygon", "coordinates": [ [ [ [ 14.444715454724133, 53.796232826511996 ], [ 14.446229271412394, 53.796290436801449 ], [ 14.446326559681482, 53.795394184942374 ], [ 14.444812775061925, 53.795336576532101 ], [ 14.444715454724133, 53.796232826511996 ] ] ] ] } },
{ "type": "Feature", "properties": { "id": "70", "left": 200132.4743, "top": 668589.34209999989, "right": 200232.4743, "bottom": 668489.34209999989, "size": 3.0 }, "geometry": { "type": "MultiPolygon", "coordinates": [ [ [ [ 14.444812775061925, 53.795336576532101 ], [ 14.446326559681482, 53.795394184942374 ], [ 14.446423842688517, 53.794497932827397 ], [ 14.444910090135942, 53.794440326296233 ], [ 14.444812775061925, 53.795336576532101 ] ] ] ] } },
{ "type": "Feature", "properties": { "id": "71", "left": 200132.4743, "top": 668489.34209999989, "right": 200232.4743, "bottom": 668389.34209999989, "size": 1.0 }, "geometry": { "type": "MultiPolygon", "coordinates": [ [ [ [ 14.444910090135942, 53.794440326296233 ], [ 14.446423842688517, 53.794497932827397 ], [ 14.446521120433877, 53.793601680456547 ], [ 14.445007399946569, 53.793544075804405 ], [ 14.444910090135942, 53.794440326296233 ] ] ] ] } },
{ "type": "Feature", "properties": { "id": "72", "left": 200132.4743, "top": 668389.34209999989, "right": 200232.4743, "bottom": 668289.34209999989, "size": 1.0 }, "geometry": { "type": "MultiPolygon", "coordinates": [ [ [ [ 14.445007399946569, 53.793544075804405 ], [ 14.446521120433877, 53.793601680456547 ], [ 14.446618392917943, 53.792705427829823 ], [ 14.445104704494188, 53.792647825056626 ], [ 14.445007399946569, 53.793544075804405 ] ] ] ] } },
{ "type": "Feature", "properties": { "id": "73", "left": 200132.4743, "top": 668289.34209999989, "right": 200232.4743, "bottom": 668189.34209999989, "size": 2.0 }, "geometry": { "type": "MultiPolygon", "coordinates": [ [ [ [ 14.445104704494188, 53.792647825056626 ], [ 14.446618392917943, 53.792705427829823 ], [ 14.446715660141104, 53.79180917494724 ], [ 14.445202003779178, 53.791751574052903 ], [ 14.445104704494188, 53.792647825056626 ] ] ] ] } },
{ "type": "Feature", "properties": { "id": "74", "left": 200132.4743, "top": 668189.34209999989, "right": 200232.4743, "bottom": 668089.34209999989, "size": 0.0 }, "geometry": { "type": "MultiPolygon", "coordinates": [ [ [ [ 14.445202003779178, 53.791751574052903 ], [ 14.446715660141104, 53.79180917494724 ], [ 14.446812922103735, 53.790912921808804 ], [ 14.445299297801929, 53.790855322793242 ], [ 14.445202003779178, 53.791751574052903 ] ] ] ] } },
{ "type": "Feature", "properties": { "id": "75", "left": 200132.4743, "top": 668089.34209999989, "right": 200232.4743, "bottom": 667989.34209999989, "size": 1.0 }, "geometry": { "type": "MultiPolygon", "coordinates": [ [ [ [ 14.445299297801929, 53.790855322793242 ], [ 14.446812922103735, 53.790912921808804 ], [ 14.446910178806226, 53.790016668414509 ], [ 14.44539658656282, 53.789959071277657 ], [ 14.445299297801929, 53.790855322793242 ] ] ] ] } },
{ "type": "Feature", "properties": { "id": "76", "left": 200132.4743, "top": 667989.34209999989, "right": 200232.4743, "bottom": 667889.34209999989, "size": 0.0 }, "geometry": { "type": "MultiPolygon", "coordinates": [ [ [ [ 14.44539658656282, 53.789959071277657 ], [ 14.446910178806226, 53.790016668414509 ], [ 14.447007430248958, 53.78912041476439 ], [ 14.445493870062235, 53.78906281950615 ], [ 14.44539658656282, 53.789959071277657 ] ] ] ] } },
{ "type": "Feature", "properties": { "id": "77", "left": 200132.4743, "top": 667889.34209999989, "right": 200232.4743, "bottom": 667789.34209999989, "size": 0.0 }, "geometry": { "type": "MultiPolygon", "coordinates": [ [ [ [ 14.445493870062235, 53.78906281950615 ], [ 14.447007430248958, 53.78912041476439 ], [ 14.447104676432311, 53.78822416085842 ], [ 14.44559114830056, 53.78816656747874 ], [ 14.445493870062235, 53.78906281950615 ] ] ] ] } },
{ "type": "Feature", "properties": { "id": "78", "left": 200132.4743, "top": 667789.34209999989, "right": 200232.4743, "bottom": 667689.34209999989, "size": 0.0 }, "geometry": { "type": "MultiPolygon", "coordinates": [ [ [ [ 14.44559114830056, 53.78816656747874 ], [ 14.447104676432311, 53.78822416085842 ], [ 14.447201917356674, 53.787327906696625 ], [ 14.445688421278172, 53.7872703151954 ], [ 14.44559114830056, 53.78816656747874 ] ] ] ] } },
{ "type": "Feature", "properties": { "id": "82", "left": 200232.4743, "top": 668989.34209999989, "right": 200332.4743, "bottom": 668889.34209999989, "size": 0.0 }, "geometry": { "type": "MultiPolygon", "coordinates": [ [ [ [ 14.44593737502894, 53.798979190843305 ], [ 14.447451293197195, 53.799036787702647 ], [ 14.447548565180524, 53.798140534732461 ], [ 14.446034679086505, 53.798082939751929 ], [ 14.44593737502894, 53.798979190843305 ] ] ] ] } },
{ "type": "Feature", "properties": { "id": "83", "left": 200232.4743, "top": 668889.34209999989, "right": 200332.4743, "bottom": 668789.34209999989, "size": 0.0 }, "geometry": { "type": "MultiPolygon", "coordinates": [ [ [ [ 14.446034679086505, 53.798082939751929 ], [ 14.447548565180524, 53.798140534732461 ], [ 14.447645831902364, 53.797244281506451 ], [ 14.44613197788086, 53.797186688404629 ], [ 14.446034679086505, 53.798082939751929 ] ] ] ] } },
{ "type": "Feature", "properties": { "id": "84", "left": 200232.4743, "top": 668789.34209999989, "right": 200332.4743, "bottom": 668689.34209999989, "size": 0.0 }, "geometry": { "type": "MultiPolygon", "coordinates": [ [ [ [ 14.44613197788086, 53.797186688404629 ], [ 14.447645831902364, 53.797244281506451 ], [ 14.447743093363094, 53.796348028024624 ], [ 14.446229271412394, 53.796290436801449 ], [ 14.44613197788086, 53.797186688404629 ] ] ] ] } },
{ "type": "Feature", "properties": { "id": "85", "left": 200232.4743, "top": 668689.34209999989, "right": 200332.4743, "bottom": 668589.34209999989, "size": 0.0 }, "geometry": { "type": "MultiPolygon", "coordinates": [ [ [ [ 14.446229271412394, 53.796290436801449 ], [ 14.447743093363094, 53.796348028024624 ], [ 14.4478403495631, 53.795451774286974 ], [ 14.446326559681482, 53.795394184942374 ], [ 14.446229271412394, 53.796290436801449 ] ] ] ] } },
{ "type": "Feature", "properties": { "id": "86", "left": 200232.4743, "top": 668589.34209999989, "right": 200332.4743, "bottom": 668489.34209999989, "size": 1.0 }, "geometry": { "type": "MultiPolygon", "coordinates": [ [ [ [ 14.446326559681482, 53.795394184942374 ], [ 14.4478403495631, 53.795451774286974 ], [ 14.447937600502765, 53.794555520293528 ], [ 14.446423842688517, 53.794497932827397 ], [ 14.446326559681482, 53.795394184942374 ] ] ] ] } },
{ "type": "Feature", "properties": { "id": "87", "left": 200232.4743, "top": 668489.34209999989, "right": 200332.4743, "bottom": 668389.34209999989, "size": 2.0 }, "geometry": { "type": "MultiPolygon", "coordinates": [ [ [ [ 14.446423842688517, 53.794497932827397 ], [ 14.447937600502765, 53.794555520293528 ], [ 14.448034846182475, 53.793659266044273 ], [ 14.446521120433877, 53.793601680456547 ], [ 14.446423842688517, 53.794497932827397 ] ] ] ] } },
{ "type": "Feature", "properties": { "id": "88", "left": 200232.4743, "top": 668389.34209999989, "right": 200332.4743, "bottom": 668289.34209999989, "size": 0.0 }, "geometry": { "type": "MultiPolygon", "coordinates": [ [ [ [ 14.446521120433877, 53.793601680456547 ], [ 14.448034846182475, 53.793659266044273 ], [ 14.448132086602609, 53.792763011539215 ], [ 14.446618392917943, 53.792705427829823 ], [ 14.446521120433877, 53.793601680456547 ] ] ] ] } },
{ "type": "Feature", "properties": { "id": "89", "left": 200232.4743, "top": 668289.34209999989, "right": 200332.4743, "bottom": 668189.34209999989, "size": 0.0 }, "geometry": { "type": "MultiPolygon", "coordinates": [ [ [ [ 14.446618392917943, 53.792705427829823 ], [ 14.448132086602609, 53.792763011539215 ], [ 14.448229321763552, 53.79186675677839 ], [ 14.446715660141104, 53.79180917494724 ], [ 14.446618392917943, 53.792705427829823 ] ] ] ] } },
{ "type": "Feature", "properties": { "id": "90", "left": 200232.4743, "top": 668189.34209999989, "right": 200332.4743, "bottom": 668089.34209999989, "size": 1.0 }, "geometry": { "type": "MultiPolygon", "coordinates": [ [ [ [ 14.446715660141104, 53.79180917494724 ], [ 14.448229321763552, 53.79186675677839 ], [ 14.448326551665684, 53.790970501761784 ], [ 14.446812922103735, 53.790912921808804 ], [ 14.446715660141104, 53.79180917494724 ] ] ] ] } },
{ "type": "Feature", "properties": { "id": "91", "left": 200232.4743, "top": 668089.34209999989, "right": 200332.4743, "bottom": 667989.34209999989, "size": 0.0 }, "geometry": { "type": "MultiPolygon", "coordinates": [ [ [ [ 14.446812922103735, 53.790912921808804 ], [ 14.448326551665684, 53.790970501761784 ], [ 14.448423776309392, 53.790074246489404 ], [ 14.446910178806226, 53.790016668414509 ], [ 14.446812922103735, 53.790912921808804 ] ] ] ] } },
{ "type": "Feature", "properties": { "id": "92", "left": 200232.4743, "top": 667989.34209999989, "right": 200332.4743, "bottom": 667889.34209999989, "size": 0.0 }, "geometry": { "type": "MultiPolygon", "coordinates": [ [ [ [ 14.446910178806226, 53.790016668414509 ], [ 14.448423776309392, 53.790074246489404 ], [ 14.448520995695057, 53.789177990961264 ], [ 14.447007430248958, 53.78912041476439 ], [ 14.446910178806226, 53.790016668414509 ] ] ] ] } },
{ "type": "Feature", "properties": { "id": "93", "left": 200232.4743, "top": 667889.34209999989, "right": 200332.4743, "bottom": 667789.34209999989, "size": 1.0 }, "geometry": { "type": "MultiPolygon", "coordinates": [ [ [ [ 14.447007430248958, 53.78912041476439 ], [ 14.448520995695057, 53.789177990961264 ], [ 14.44861820982306, 53.788281735177378 ], [ 14.447104676432311, 53.78822416085842 ], [ 14.447007430248958, 53.78912041476439 ] ] ] ] } },
{ "type": "Feature", "properties": { "id": "94", "left": 200232.4743, "top": 667789.34209999989, "right": 200332.4743, "bottom": 667689.34209999989, "size": 0.0 }, "geometry": { "type": "MultiPolygon", "coordinates": [ [ [ [ 14.447104676432311, 53.78822416085842 ], [ 14.44861820982306, 53.788281735177378 ], [ 14.448715418693784, 53.78738547913774 ], [ 14.447201917356674, 53.787327906696625 ], [ 14.447104676432311, 53.78822416085842 ] ] ] ] } },
{ "type": "Feature", "properties": { "id": "95", "left": 200232.4743, "top": 667689.34209999989, "right": 200332.4743, "bottom": 667589.34209999989, "size": 0.0 }, "geometry": { "type": "MultiPolygon", "coordinates": [ [ [ [ 14.447201917356674, 53.787327906696625 ], [ 14.448715418693784, 53.78738547913774 ], [ 14.448812622307617, 53.78648922284237 ], [ 14.447299153022419, 53.78643165227902 ], [ 14.447201917356674, 53.787327906696625 ] ] ] ] } },
{ "type": "Feature", "properties": { "id": "98", "left": 200332.4743, "top": 668989.34209999989, "right": 200432.4743, "bottom": 668889.34209999989, "size": 0.0 }, "geometry": { "type": "MultiPolygon", "coordinates": [ [ [ [ 14.447451293197195, 53.799036787702647 ], [ 14.448965216627323, 53.799094365493723 ], [ 14.449062456536033, 53.798198110645352 ], [ 14.447548565180524, 53.798140534732461 ], [ 14.447451293197195, 53.799036787702647 ] ] ] ] } },
{ "type": "Feature", "properties": { "id": "99", "left": 200332.4743, "top": 668889.34209999989, "right": 200432.4743, "bottom": 668789.34209999989, "size": 0.0 }, "geometry": { "type": "MultiPolygon", "coordinates": [ [ [ [ 14.447548565180524, 53.798140534732461 ], [ 14.449062456536033, 53.798198110645352 ], [ 14.449159691184969, 53.797301855541228 ], [ 14.447645831902364, 53.797244281506451 ], [ 14.447548565180524, 53.798140534732461 ] ] ] ] } },
{ "type": "Feature", "properties": { "id": "100", "left": 200332.4743, "top": 668789.34209999989, "right": 200432.4743, "bottom": 668689.34209999989, "size": 0.0 }, "geometry": { "type": "MultiPolygon", "coordinates": [ [ [ [ 14.447645831902364, 53.797244281506451 ], [ 14.449159691184969, 53.797301855541228 ], [ 14.449256920574516, 53.796405600181373 ], [ 14.447743093363094, 53.796348028024624 ], [ 14.447645831902364, 53.797244281506451 ] ] ] ] } },
{ "type": "Feature", "properties": { "id": "101", "left": 200332.4743, "top": 668689.34209999989, "right": 200432.4743, "bottom": 668589.34209999989, "size": 1.0 }, "geometry": { "type": "MultiPolygon", "coordinates": [ [ [ [ 14.447743093363094, 53.796348028024624 ], [ 14.449256920574516, 53.796405600181373 ], [ 14.449354144705055, 53.795509344565787 ], [ 14.4478403495631, 53.795451774286974 ], [ 14.447743093363094, 53.796348028024624 ] ] ] ] } },
{ "type": "Feature", "properties": { "id": "102", "left": 200332.4743, "top": 668589.34209999989, "right": 200432.4743, "bottom": 668489.34209999989, "size": 0.0 }, "geometry": { "type": "MultiPolygon", "coordinates": [ [ [ [ 14.4478403495631, 53.795451774286974 ], [ 14.449354144705055, 53.795509344565787 ], [ 14.449451363576973, 53.794613088694462 ], [ 14.447937600502765, 53.794555520293528 ], [ 14.4478403495631, 53.795451774286974 ] ] ] ] } },
{ "type": "Feature", "properties": { "id": "103", "left": 200332.4743, "top": 668489.34209999989, "right": 200432.4743, "bottom": 668389.34209999989, "size": 0.0 }, "geometry": { "type": "MultiPolygon", "coordinates": [ [ [ [ 14.447937600502765, 53.794555520293528 ], [ 14.449451363576973, 53.794613088694462 ], [ 14.449548577190651, 53.793716832567419 ], [ 14.448034846182475, 53.793659266044273 ], [ 14.447937600502765, 53.794555520293528 ] ] ] ] } },
{ "type": "Feature", "properties": { "id": "104", "left": 200332.4743, "top": 668389.34209999989, "right": 200432.4743, "bottom": 668289.34209999989, "size": 0.0 }, "geometry": { "type": "MultiPolygon", "coordinates": [ [ [ [ 14.448034846182475, 53.793659266044273 ], [ 14.449548577190651, 53.793716832567419 ], [ 14.449645785546467, 53.792820576184667 ], [ 14.448132086602609, 53.792763011539215 ], [ 14.448034846182475, 53.793659266044273 ] ] ] ] } },
{ "type": "Feature", "properties": { "id": "105", "left": 200332.4743, "top": 668289.34209999989, "right": 200432.4743, "bottom": 668189.34209999989, "size": 0.0 }, "geometry": { "type": "MultiPolygon", "coordinates": [ [ [ [ 14.448132086602609, 53.792763011539215 ], [ 14.449645785546467, 53.792820576184667 ], [ 14.449742988644809, 53.791924319546197 ], [ 14.448229321763552, 53.79186675677839 ], [ 14.448132086602609, 53.792763011539215 ] ] ] ] } },
{ "type": "Feature", "properties": { "id": "106", "left": 200332.4743, "top": 668189.34209999989, "right": 200432.4743, "bottom": 668089.34209999989, "size": 0.0 }, "geometry": { "type": "MultiPolygon", "coordinates": [ [ [ [ 14.448229321763552, 53.79186675677839 ], [ 14.449742988644809, 53.791924319546197 ], [ 14.449840186486062, 53.791028062652039 ], [ 14.448326551665684, 53.790970501761784 ], [ 14.448229321763552, 53.79186675677839 ] ] ] ] } },
{ "type": "Feature", "properties": { "id": "107", "left": 200332.4743, "top": 668089.34209999989, "right": 200432.4743, "bottom": 667989.34209999989, "size": 0.0 }, "geometry": { "type": "MultiPolygon", "coordinates": [ [ [ [ 14.448326551665684, 53.790970501761784 ], [ 14.449840186486062, 53.791028062652039 ], [ 14.449937379070599, 53.790131805502199 ], [ 14.448423776309392, 53.790074246489404 ], [ 14.448326551665684, 53.790970501761784 ] ] ] ] } },
{ "type": "Feature", "properties": { "id": "108", "left": 200332.4743, "top": 667989.34209999989, "right": 200432.4743, "bottom": 667889.34209999989, "size": 0.0 }, "geometry": { "type": "MultiPolygon", "coordinates": [ [ [ [ 14.448423776309392, 53.790074246489404 ], [ 14.449937379070599, 53.790131805502199 ], [ 14.450034566398813, 53.78923554809667 ], [ 14.448520995695057, 53.789177990961264 ], [ 14.448423776309392, 53.790074246489404 ] ] ] ] } },
{ "type": "Feature", "properties": { "id": "109", "left": 200332.4743, "top": 667889.34209999989, "right": 200432.4743, "bottom": 667789.34209999989, "size": 0.0 }, "geometry": { "type": "MultiPolygon", "coordinates": [ [ [ [ 14.448520995695057, 53.789177990961264 ], [ 14.450034566398813, 53.78923554809667 ], [ 14.450131748471085, 53.788339290435481 ], [ 14.44861820982306, 53.788281735177378 ], [ 14.448520995695057, 53.789177990961264 ] ] ] ] } },
{ "type": "Feature", "properties": { "id": "110", "left": 200332.4743, "top": 667789.34209999989, "right": 200432.4743, "bottom": 667689.34209999989, "size": 0.0 }, "geometry": { "type": "MultiPolygon", "coordinates": [ [ [ [ 14.44861820982306, 53.788281735177378 ], [ 14.450131748471085, 53.788339290435481 ], [ 14.45022892528779, 53.787443032518603 ], [ 14.448715418693784, 53.78738547913774 ], [ 14.44861820982306, 53.788281735177378 ] ] ] ] } },
{ "type": "Feature", "properties": { "id": "111", "left": 200332.4743, "top": 667689.34209999989, "right": 200432.4743, "bottom": 667589.34209999989, "size": 0.0 }, "geometry": { "type": "MultiPolygon", "coordinates": [ [ [ [ 14.448715418693784, 53.78738547913774 ], [ 14.45022892528779, 53.787443032518603 ], [ 14.45032609684932, 53.786546774346071 ], [ 14.448812622307617, 53.78648922284237 ], [ 14.448715418693784, 53.78738547913774 ] ] ] ] } },
{ "type": "Feature", "properties": { "id": "114", "left": 200432.4743, "top": 668989.34209999989, "right": 200532.4743, "bottom": 668889.34209999989, "size": 0.0 }, "geometry": { "type": "MultiPolygon", "coordinates": [ [ [ [ 14.448965216627323, 53.799094365493723 ], [ 14.45047914531761, 53.799151924216368 ], [ 14.450576353151316, 53.798255667490437 ], [ 14.449062456536033, 53.798198110645352 ], [ 14.448965216627323, 53.799094365493723 ] ] ] ] } },
{ "type": "Feature", "properties": { "id": "115", "left": 200432.4743, "top": 668889.34209999989, "right": 200532.4743, "bottom": 668789.34209999989, "size": 0.0 }, "geometry": { "type": "MultiPolygon", "coordinates": [ [ [ [ 14.449062456536033, 53.798198110645352 ], [ 14.450576353151316, 53.798255667490437 ], [ 14.450673555726969, 53.797359410508832 ], [ 14.449159691184969, 53.797301855541228 ], [ 14.449062456536033, 53.798198110645352 ] ] ] ] } },
{ "type": "Feature", "properties": { "id": "116", "left": 200432.4743, "top": 668789.34209999989, "right": 200532.4743, "bottom": 668689.34209999989, "size": 0.0 }, "geometry": { "type": "MultiPolygon", "coordinates": [ [ [ [ 14.449159691184969, 53.797301855541228 ], [ 14.450673555726969, 53.797359410508832 ], [ 14.450770753044948, 53.79646315327156 ], [ 14.449256920574516, 53.796405600181373 ], [ 14.449159691184969, 53.797301855541228 ] ] ] ] } },
{ "type": "Feature", "properties": { "id": "117", "left": 200432.4743, "top": 668689.34209999989, "right": 200532.4743, "bottom": 668589.34209999989, "size": 0.0 }, "geometry": { "type": "MultiPolygon", "coordinates": [ [ [ [ 14.449256920574516, 53.796405600181373 ], [ 14.450770753044948, 53.79646315327156 ], [ 14.450867945105635, 53.795566895778641 ], [ 14.449354144705055, 53.795509344565787 ], [ 14.449256920574516, 53.796405600181373 ] ] ] ] } },
{ "type": "Feature", "properties": { "id": "118", "left": 200432.4743, "top": 668589.34209999989, "right": 200532.4743, "bottom": 668489.34209999989, "size": 1.0 }, "geometry": { "type": "MultiPolygon", "coordinates": [ [ [ [ 14.449354144705055, 53.795509344565787 ], [ 14.450867945105635, 53.795566895778641 ], [ 14.450965131909419, 53.794670638030063 ], [ 14.449451363576973, 53.794613088694462 ], [ 14.449354144705055, 53.795509344565787 ] ] ] ] } },
{ "type": "Feature", "properties": { "id": "119", "left": 200432.4743, "top": 668489.34209999989, "right": 200532.4743, "bottom": 668389.34209999989, "size": 0.0 }, "geometry": { "type": "MultiPolygon", "coordinates": [ [ [ [ 14.449451363576973, 53.794613088694462 ], [ 14.450965131909419, 53.794670638030063 ], [ 14.451062313456678, 53.793774380025852 ], [ 14.449548577190651, 53.793716832567419 ], [ 14.449451363576973, 53.794613088694462 ] ] ] ] } },
{ "type": "Feature", "properties": { "id": "120", "left": 200432.4743, "top": 668389.34209999989, "right": 200532.4743, "bottom": 668289.34209999989, "size": 0.0 }, "geometry": { "type": "MultiPolygon", "coordinates": [ [ [ [ 14.449548577190651, 53.793716832567419 ], [ 14.451062313456678, 53.793774380025852 ], [ 14.4511594897478, 53.792878121766002 ], [ 14.449645785546467, 53.792820576184667 ], [ 14.449548577190651, 53.793716832567419 ] ] ] ] } },
{ "type": "Feature", "properties": { "id": "121", "left": 200432.4743, "top": 668289.34209999989, "right": 200532.4743, "bottom": 668189.34209999989, "size": 0.0 }, "geometry": { "type": "MultiPolygon", "coordinates": [ [ [ [ 14.449645785546467, 53.792820576184667 ], [ 14.4511594897478, 53.792878121766002 ], [ 14.451256660783161, 53.791981863250534 ], [ 14.449742988644809, 53.791924319546197 ], [ 14.449645785546467, 53.792820576184667 ] ] ] ] } },
{ "type": "Feature", "properties": { "id": "122", "left": 200432.4743, "top": 668189.34209999989, "right": 200532.4743, "bottom": 668089.34209999989, "size": 1.0 }, "geometry": { "type": "MultiPolygon", "coordinates": [ [ [ [ 14.449742988644809, 53.791924319546197 ], [ 14.451256660783161, 53.791981863250534 ], [ 14.451353826563144, 53.791085604479441 ], [ 14.449840186486062, 53.791028062652039 ], [ 14.449742988644809, 53.791924319546197 ] ] ] ] } },
{ "type": "Feature", "properties": { "id": "123", "left": 200432.4743, "top": 668089.34209999989, "right": 200532.4743, "bottom": 667989.34209999989, "size": 0.0 }, "geometry": { "type": "MultiPolygon", "coordinates": [ [ [ [ 14.449840186486062, 53.791028062652039 ], [ 14.451353826563144, 53.791085604479441 ], [ 14.451450987088135, 53.790189345452745 ], [ 14.449937379070599, 53.790131805502199 ], [ 14.449840186486062, 53.791028062652039 ] ] ] ] } },
{ "type": "Feature", "properties": { "id": "124", "left": 200432.4743, "top": 667989.34209999989, "right": 200532.4743, "bottom": 667889.34209999989, "size": 0.0 }, "geometry": { "type": "MultiPolygon", "coordinates": [ [ [ [ 14.449937379070599, 53.790131805502199 ], [ 14.451450987088135, 53.790189345452745 ], [ 14.451548142358517, 53.789293086170439 ], [ 14.450034566398813, 53.78923554809667 ], [ 14.449937379070599, 53.790131805502199 ] ] ] ] } },
{ "type": "Feature", "properties": { "id": "125", "left": 200432.4743, "top": 667889.34209999989, "right": 200532.4743, "bottom": 667789.34209999989, "size": 0.0 }, "geometry": { "type": "MultiPolygon", "coordinates": [ [ [ [ 14.450034566398813, 53.78923554809667 ], [ 14.451548142358517, 53.789293086170439 ], [ 14.451645292374673, 53.78839682663255 ], [ 14.450131748471085, 53.788339290435481 ], [ 14.450034566398813, 53.78923554809667 ] ] ] ] } },
{ "type": "Feature", "properties": { "id": "126", "left": 200432.4743, "top": 667789.34209999989, "right": 200532.4743, "bottom": 667689.34209999989, "size": 0.0 }, "geometry": { "type": "MultiPolygon", "coordinates": [ [ [ [ 14.450131748471085, 53.788339290435481 ], [ 14.451645292374673, 53.78839682663255 ], [ 14.451742437136978, 53.787500566839057 ], [ 14.45022892528779, 53.787443032518603 ], [ 14.450131748471085, 53.788339290435481 ] ] ] ] } },
{ "type": "Feature", "properties": { "id": "127", "left": 200432.4743, "top": 667689.34209999989, "right": 200532.4743, "bottom": 667589.34209999989, "size": 0.0 }, "geometry": { "type": "MultiPolygon", "coordinates": [ [ [ [ 14.45022892528779, 53.787443032518603 ], [ 14.451742437136978, 53.787500566839057 ], [ 14.451839576645822, 53.786604306790004 ], [ 14.45032609684932, 53.786546774346071 ], [ 14.45022892528779, 53.787443032518603 ] ] ] ] } },
{ "type": "Feature", "properties": { "id": "130", "left": 200532.4743, "top": 668989.34209999989, "right": 200632.4743, "bottom": 668889.34209999989, "size": 0.0 }, "geometry": { "type": "MultiPolygon", "coordinates": [ [ [ [ 14.45047914531761, 53.799151924216368 ], [ 14.451993079266334, 53.799209463870469 ], [ 14.452090255024652, 53.798313205267569 ], [ 14.450576353151316, 53.798255667490437 ], [ 14.45047914531761, 53.799151924216368 ] ] ] ] } },
{ "type": "Feature", "properties": { "id": "131", "left": 200532.4743, "top": 668889.34209999989, "right": 200632.4743, "bottom": 668789.34209999989, "size": 0.0 }, "geometry": { "type": "MultiPolygon", "coordinates": [ [ [ [ 14.450576353151316, 53.798255667490437 ], [ 14.452090255024652, 53.798313205267569 ], [ 14.452187425526638, 53.797416946409086 ], [ 14.450673555726969, 53.797359410508832 ], [ 14.450576353151316, 53.798255667490437 ] ] ] ] } },
{ "type": "Feature", "properties": { "id": "132", "left": 200532.4743, "top": 668789.34209999989, "right": 200632.4743, "bottom": 668689.34209999989, "size": 0.0 }, "geometry": { "type": "MultiPolygon", "coordinates": [ [ [ [ 14.450673555726969, 53.797359410508832 ], [ 14.452187425526638, 53.797416946409086 ], [ 14.452284590772667, 53.796520687295036 ], [ 14.450770753044948, 53.79646315327156 ], [ 14.450673555726969, 53.797359410508832 ] ] ] ] } },
{ "type": "Feature", "properties": { "id": "133", "left": 200532.4743, "top": 668689.34209999989, "right": 200632.4743, "bottom": 668589.34209999989, "size": 0.0 }, "geometry": { "type": "MultiPolygon", "coordinates": [ [ [ [ 14.450770753044948, 53.79646315327156 ], [ 14.452284590772667, 53.796520687295036 ], [ 14.452381750763122, 53.795624427925404 ], [ 14.450867945105635, 53.795566895778641 ], [ 14.450770753044948, 53.79646315327156 ] ] ] ] } },
{ "type": "Feature", "properties": { "id": "134", "left": 200532.4743, "top": 668589.34209999989, "right": 200632.4743, "bottom": 668489.34209999989, "size": 0.0 }, "geometry": { "type": "MultiPolygon", "coordinates": [ [ [ [ 14.450867945105635, 53.795566895778641 ], [ 14.452381750763122, 53.795624427925404 ], [ 14.45247890549839, 53.794728168300189 ], [ 14.450965131909419, 53.794670638030063 ], [ 14.450867945105635, 53.795566895778641 ] ] ] ] } },
{ "type": "Feature", "properties": { "id": "135", "left": 200532.4743, "top": 668489.34209999989, "right": 200632.4743, "bottom": 668389.34209999989, "size": 0.0 }, "geometry": { "type": "MultiPolygon", "coordinates": [ [ [ [ 14.450965131909419, 53.794670638030063 ], [ 14.45247890549839, 53.794728168300189 ], [ 14.452576054978852, 53.793831908419421 ], [ 14.451062313456678, 53.793774380025852 ], [ 14.450965131909419, 53.794670638030063 ] ] ] ] } },
{ "type": "Feature", "properties": { "id": "136", "left": 200532.4743, "top": 668389.34209999989, "right": 200632.4743, "bottom": 668289.34209999989, "size": 0.0 }, "geometry": { "type": "MultiPolygon", "coordinates": [ [ [ [ 14.451062313456678, 53.793774380025852 ], [ 14.452576054978852, 53.793831908419421 ], [ 14.45267319920489, 53.792935648283098 ], [ 14.4511594897478, 53.792878121766002 ], [ 14.451062313456678, 53.793774380025852 ] ] ] ] } },
{ "type": "Feature", "properties": { "id": "137", "left": 200532.4743, "top": 668289.34209999989, "right": 200632.4743, "bottom": 668189.34209999989, "size": 0.0 }, "geometry": { "type": "MultiPolygon", "coordinates": [ [ [ [ 14.4511594897478, 53.792878121766002 ], [ 14.45267319920489, 53.792935648283098 ], [ 14.452770338176885, 53.792039387891236 ], [ 14.451256660783161, 53.791981863250534 ], [ 14.4511594897478, 53.792878121766002 ] ] ] ] } },
{ "type": "Feature", "properties": { "id": "138", "left": 200532.4743, "top": 668189.34209999989, "right": 200632.4743, "bottom": 668089.34209999989, "size": 0.0 }, "geometry": { "type": "MultiPolygon", "coordinates": [ [ [ [ 14.451256660783161, 53.791981863250534 ], [ 14.452770338176885, 53.792039387891236 ], [ 14.452867471895223, 53.791143127243828 ], [ 14.451353826563144, 53.791085604479441 ], [ 14.451256660783161, 53.791981863250534 ] ] ] ] } },
{ "type": "Feature", "properties": { "id": "139", "left": 200532.4743, "top": 668089.34209999989, "right": 200632.4743, "bottom": 667989.34209999989, "size": 0.0 }, "geometry": { "type": "MultiPolygon", "coordinates": [ [ [ [ 14.451353826563144, 53.791085604479441 ], [ 14.452867471895223, 53.791143127243828 ], [ 14.45296460036028, 53.790246866340894 ], [ 14.451450987088135, 53.790189345452745 ], [ 14.451353826563144, 53.791085604479441 ] ] ] ] } },
{ "type": "Feature", "properties": { "id": "140", "left": 200532.4743, "top": 667989.34209999989, "right": 200632.4743, "bottom": 667889.34209999989, "size": 0.0 }, "geometry": { "type": "MultiPolygon", "coordinates": [ [ [ [ 14.451450987088135, 53.790189345452745 ], [ 14.45296460036028, 53.790246866340894 ], [ 14.453061723572448, 53.789350605182435 ], [ 14.451548142358517, 53.789293086170439 ], [ 14.451450987088135, 53.790189345452745 ] ] ] ] } },
{ "type": "Feature", "properties": { "id": "141", "left": 200532.4743, "top": 667889.34209999989, "right": 200632.4743, "bottom": 667789.34209999989, "size": 0.0 }, "geometry": { "type": "MultiPolygon", "coordinates": [ [ [ [ 14.451548142358517, 53.789293086170439 ], [ 14.453061723572448, 53.789350605182435 ], [ 14.453158841532103, 53.788454343768464 ], [ 14.451645292374673, 53.78839682663255 ], [ 14.451548142358517, 53.789293086170439 ] ] ] ] } },
{ "type": "Feature", "properties": { "id": "142", "left": 200532.4743, "top": 667789.34209999989, "right": 200632.4743, "bottom": 667689.34209999989, "size": 0.0 }, "geometry": { "type": "MultiPolygon", "coordinates": [ [ [ [ 14.451645292374673, 53.78839682663255 ], [ 14.453158841532103, 53.788454343768464 ], [ 14.45325595423963, 53.787558082098975 ], [ 14.451742437136978, 53.787500566839057 ], [ 14.451645292374673, 53.78839682663255 ] ] ] ] } },
{ "type": "Feature", "properties": { "id": "143", "left": 200532.4743, "top": 667689.34209999989, "right": 200632.4743, "bottom": 667589.34209999989, "size": 0.0 }, "geometry": { "type": "MultiPolygon", "coordinates": [ [ [ [ 14.451742437136978, 53.787500566839057 ], [ 14.45325595423963, 53.787558082098975 ], [ 14.453353061695406, 53.786661820174004 ], [ 14.451839576645822, 53.786604306790004 ], [ 14.451742437136978, 53.787500566839057 ] ] ] ] } },
{ "type": "Feature", "properties": { "id": "146", "left": 200632.4743, "top": 668989.34209999989, "right": 200732.4743, "bottom": 668889.34209999989, "size": 0.0 }, "geometry": { "type": "MultiPolygon", "coordinates": [ [ [ [ 14.451993079266334, 53.799209463870469 ], [ 14.453507018471775, 53.799266984455841 ], [ 14.453604162154328, 53.79837072397661 ], [ 14.452090255024652, 53.798313205267569 ], [ 14.451993079266334, 53.799209463870469 ] ] ] ] } },
{ "type": "Feature", "properties": { "id": "147", "left": 200632.4743, "top": 668889.34209999989, "right": 200732.4743, "bottom": 668789.34209999989, "size": 0.0 }, "geometry": { "type": "MultiPolygon", "coordinates": [ [ [ [ 14.452090255024652, 53.798313205267569 ], [ 14.453604162154328, 53.79837072397661 ], [ 14.453701300582258, 53.797474463241869 ], [ 14.452187425526638, 53.797416946409086 ], [ 14.452090255024652, 53.798313205267569 ] ] ] ] } },
{ "type": "Feature", "properties": { "id": "148", "left": 200632.4743, "top": 668789.34209999989, "right": 200732.4743, "bottom": 668689.34209999989, "size": 0.0 }, "geometry": { "type": "MultiPolygon", "coordinates": [ [ [ [ 14.452187425526638, 53.797416946409086 ], [ 14.453701300582258, 53.797474463241869 ], [ 14.453798433755956, 53.796578202251638 ], [ 14.452284590772667, 53.796520687295036 ], [ 14.452187425526638, 53.797416946409086 ] ] ] ] } },
{ "type": "Feature", "properties": { "id": "149", "left": 200632.4743, "top": 668689.34209999989, "right": 200732.4743, "bottom": 668589.34209999989, "size": 0.0 }, "geometry": { "type": "MultiPolygon", "coordinates": [ [ [ [ 14.452284590772667, 53.796520687295036 ], [ 14.453798433755956, 53.796578202251638 ], [ 14.453895561675797, 53.795681941005917 ], [ 14.452381750763122, 53.795624427925404 ], [ 14.452284590772667, 53.796520687295036 ] ] ] ] } },
{ "type": "Feature", "properties": { "id": "150", "left": 200632.4743, "top": 668589.34209999989, "right": 200732.4743, "bottom": 668489.34209999989, "size": 0.0 }, "geometry": { "type": "MultiPolygon", "coordinates": [ [ [ [ 14.452381750763122, 53.795624427925404 ], [ 14.453895561675797, 53.795681941005917 ], [ 14.453992684342166, 53.794785679504692 ], [ 14.45247890549839, 53.794728168300189 ], [ 14.452381750763122, 53.795624427925404 ] ] ] ] } },
{ "type": "Feature", "properties": { "id": "151", "left": 200632.4743, "top": 668489.34209999989, "right": 200732.4743, "bottom": 668389.34209999989, "size": 0.0 }, "geometry": { "type": "MultiPolygon", "coordinates": [ [ [ [ 14.45247890549839, 53.794728168300189 ], [ 14.453992684342166, 53.794785679504692 ], [ 14.454089801755448, 53.793889417747977 ], [ 14.452576054978852, 53.793831908419421 ], [ 14.45247890549839, 53.794728168300189 ] ] ] ] } },
{ "type": "Feature", "properties": { "id": "152", "left": 200632.4743, "top": 668389.34209999989, "right": 200732.4743, "bottom": 668289.34209999989, "size": 0.0 }, "geometry": { "type": "MultiPolygon", "coordinates": [ [ [ [ 14.452576054978852, 53.793831908419421 ], [ 14.454089801755448, 53.793889417747977 ], [ 14.454186913916022, 53.792993155735793 ], [ 14.45267319920489, 53.792935648283098 ], [ 14.452576054978852, 53.793831908419421 ] ] ] ] } },
{ "type": "Feature", "properties": { "id": "153", "left": 200632.4743, "top": 668289.34209999989, "right": 200732.4743, "bottom": 668189.34209999989, "size": 0.0 }, "geometry": { "type": "MultiPolygon", "coordinates": [ [ [ [ 14.45267319920489, 53.792935648283098 ], [ 14.454186913916022, 53.792993155735793 ], [ 14.454284020824272, 53.792096893468141 ], [ 14.452770338176885, 53.792039387891236 ], [ 14.45267319920489, 53.792935648283098 ] ] ] ] } },
{ "type": "Feature", "properties": { "id": "154", "left": 200632.4743, "top": 668189.34209999989, "right": 200732.4743, "bottom": 668089.34209999989, "size": 0.0 }, "geometry": { "type": "MultiPolygon", "coordinates": [ [ [ [ 14.452770338176885, 53.792039387891236 ], [ 14.454284020824272, 53.792096893468141 ], [ 14.454381122480578, 53.791200630945042 ], [ 14.452867471895223, 53.791143127243828 ], [ 14.452770338176885, 53.792039387891236 ] ] ] ] } },
{ "type": "Feature", "properties": { "id": "155", "left": 200632.4743, "top": 668089.34209999989, "right": 200732.4743, "bottom": 667989.34209999989, "size": 0.0 }, "geometry": { "type": "MultiPolygon", "coordinates": [ [ [ [ 14.452867471895223, 53.791143127243828 ], [ 14.454381122480578, 53.791200630945042 ], [ 14.454478218885322, 53.790304368166495 ], [ 14.45296460036028, 53.790246866340894 ], [ 14.452867471895223, 53.791143127243828 ] ] ] ] } },
{ "type": "Feature", "properties": { "id": "156", "left": 200632.4743, "top": 667989.34209999989, "right": 200732.4743, "bottom": 667889.34209999989, "size": 0.0 }, "geometry": { "type": "MultiPolygon", "coordinates": [ [ [ [ 14.45296460036028, 53.790246866340894 ], [ 14.454478218885322, 53.790304368166495 ], [ 14.454575310038893, 53.789408105132487 ], [ 14.453061723572448, 53.789350605182435 ], [ 14.45296460036028, 53.790246866340894 ] ] ] ] } },
{ "type": "Feature", "properties": { "id": "157", "left": 200632.4743, "top": 667889.34209999989, "right": 200732.4743, "bottom": 667789.34209999989, "size": 0.0 }, "geometry": { "type": "MultiPolygon", "coordinates": [ [ [ [ 14.453061723572448, 53.789350605182435 ], [ 14.454575310038893, 53.789408105132487 ], [ 14.454672395941666, 53.788511841843061 ], [ 14.453158841532103, 53.788454343768464 ], [ 14.453061723572448, 53.789350605182435 ] ] ] ] } },
{ "type": "Feature", "properties": { "id": "158", "left": 200632.4743, "top": 667789.34209999989, "right": 200732.4743, "bottom": 667689.34209999989, "size": 1.0 }, "geometry": { "type": "MultiPolygon", "coordinates": [ [ [ [ 14.453158841532103, 53.788454343768464 ], [ 14.454672395941666, 53.788511841843061 ], [ 14.454769476594027, 53.787615578298187 ], [ 14.45325595423963, 53.787558082098975 ], [ 14.453158841532103, 53.788454343768464 ] ] ] ] } },
{ "type": "Feature", "properties": { "id": "159", "left": 200632.4743, "top": 667689.34209999989, "right": 200732.4743, "bottom": 667589.34209999989, "size": 0.0 }, "geometry": { "type": "MultiPolygon", "coordinates": [ [ [ [ 14.45325595423963, 53.787558082098975 ], [ 14.454769476594027, 53.787615578298187 ], [ 14.454866551996355, 53.786719314497915 ], [ 14.453353061695406, 53.786661820174004 ], [ 14.45325595423963, 53.787558082098975 ] ] ] ] } },
{ "type": "Feature", "properties": { "id": "162", "left": 200732.4743, "top": 668989.34209999989, "right": 200832.4743, "bottom": 668889.34209999989, "size": 0.0 }, "geometry": { "type": "MultiPolygon", "coordinates": [ [ [ [ 14.453507018471775, 53.799266984455841 ], [ 14.455020962932217, 53.799324485972356 ], [ 14.455118074538621, 53.7984282236174 ], [ 14.453604162154328, 53.79837072397661 ], [ 14.453507018471775, 53.799266984455841 ] ] ] ] } },
{ "type": "Feature", "properties": { "id": "163", "left": 200732.4743, "top": 668889.34209999989, "right": 200832.4743, "bottom": 668789.34209999989, "size": 0.0 }, "geometry": { "type": "MultiPolygon", "coordinates": [ [ [ [ 14.453604162154328, 53.79837072397661 ], [ 14.455118074538621, 53.7984282236174 ], [ 14.455215180892122, 53.797531961007031 ], [ 14.453701300582258, 53.797474463241869 ], [ 14.453604162154328, 53.79837072397661 ] ] ] ] } },
{ "type": "Feature", "properties": { "id": "164", "left": 200732.4743, "top": 668789.34209999989, "right": 200832.4743, "bottom": 668689.34209999989, "size": 0.0 }, "geometry": { "type": "MultiPolygon", "coordinates": [ [ [ [ 14.453701300582258, 53.797474463241869 ], [ 14.455215180892122, 53.797531961007031 ], [ 14.455312281993102, 53.796635698141237 ], [ 14.453798433755956, 53.796578202251638 ], [ 14.453701300582258, 53.797474463241869 ] ] ] ] } },
{ "type": "Feature", "properties": { "id": "165", "left": 200732.4743, "top": 668689.34209999989, "right": 200832.4743, "bottom": 668589.34209999989, "size": 0.0 }, "geometry": { "type": "MultiPolygon", "coordinates": [ [ [ [ 14.453798433755956, 53.796578202251638 ], [ 14.455312281993102, 53.796635698141237 ], [ 14.455409377841944, 53.795739435020032 ], [ 14.453895561675797, 53.795681941005917 ], [ 14.453798433755956, 53.796578202251638 ] ] ] ] } },
{ "type": "Feature", "properties": { "id": "166", "left": 200732.4743, "top": 668589.34209999989, "right": 200832.4743, "bottom": 668489.34209999989, "size": 0.0 }, "geometry": { "type": "MultiPolygon", "coordinates": [ [ [ [ 14.453895561675797, 53.795681941005917 ], [ 14.455409377841944, 53.795739435020032 ], [ 14.455506468439035, 53.7948431716434 ], [ 14.453992684342166, 53.794785679504692 ], [ 14.453895561675797, 53.795681941005917 ] ] ] ] } },
{ "type": "Feature", "properties": { "id": "167", "left": 200732.4743, "top": 668489.34209999989, "right": 200832.4743, "bottom": 668389.34209999989, "size": 0.0 }, "geometry": { "type": "MultiPolygon", "coordinates": [ [ [ [ 14.453992684342166, 53.794785679504692 ], [ 14.455506468439035, 53.7948431716434 ], [ 14.45560355378475, 53.793946908011371 ], [ 14.454089801755448, 53.793889417747977 ], [ 14.453992684342166, 53.794785679504692 ] ] ] ] } },
{ "type": "Feature", "properties": { "id": "168", "left": 200732.4743, "top": 668389.34209999989, "right": 200832.4743, "bottom": 668289.34209999989, "size": 0.0 }, "geometry": { "type": "MultiPolygon", "coordinates": [ [ [ [ 14.454089801755448, 53.793889417747977 ], [ 14.45560355378475, 53.793946908011371 ], [ 14.455700633879477, 53.793050644123952 ], [ 14.454186913916022, 53.792993155735793 ], [ 14.454089801755448, 53.793889417747977 ] ] ] ] } },
{ "type": "Feature", "properties": { "id": "169", "left": 200732.4743, "top": 668289.34209999989, "right": 200832.4743, "bottom": 668189.34209999989, "size": 0.0 }, "geometry": { "type": "MultiPolygon", "coordinates": [ [ [ [ 14.454186913916022, 53.792993155735793 ], [ 14.455700633879477, 53.793050644123952 ], [ 14.455797708723598, 53.792154379981142 ], [ 14.454284020824272, 53.792096893468141 ], [ 14.454186913916022, 53.792993155735793 ] ] ] ] } },
{ "type": "Feature", "properties": { "id": "170", "left": 200732.4743, "top": 668189.34209999989, "right": 200832.4743, "bottom": 668089.34209999989, "size": 0.0 }, "geometry": { "type": "MultiPolygon", "coordinates": [ [ [ [ 14.454284020824272, 53.792096893468141 ], [ 14.455797708723598, 53.792154379981142 ], [ 14.455894778317489, 53.791258115582963 ], [ 14.454381122480578, 53.791200630945042 ], [ 14.454284020824272, 53.792096893468141 ] ] ] ] } },
{ "type": "Feature", "properties": { "id": "171", "left": 200732.4743, "top": 668089.34209999989, "right": 200832.4743, "bottom": 667989.34209999989, "size": 0.0 }, "geometry": { "type": "MultiPolygon", "coordinates": [ [ [ [ 14.454381122480578, 53.791200630945042 ], [ 14.455894778317489, 53.791258115582963 ], [ 14.45599184266154, 53.790361850929401 ], [ 14.454478218885322, 53.790304368166495 ], [ 14.454381122480578, 53.791200630945042 ] ] ] ] } },
{ "type": "Feature", "properties": { "id": "172", "left": 200732.4743, "top": 667989.34209999989, "right": 200832.4743, "bottom": 667889.34209999989, "size": 0.0 }, "geometry": { "type": "MultiPolygon", "coordinates": [ [ [ [ 14.454478218885322, 53.790304368166495 ], [ 14.45599184266154, 53.790361850929401 ], [ 14.45608890175613, 53.789465586020476 ], [ 14.454575310038893, 53.789408105132487 ], [ 14.454478218885322, 53.790304368166495 ] ] ] ] } },
{ "type": "Feature", "properties": { "id": "173", "left": 200732.4743, "top": 667889.34209999989, "right": 200832.4743, "bottom": 667789.34209999989, "size": 0.0 }, "geometry": { "type": "MultiPolygon", "coordinates": [ [ [ [ 14.454575310038893, 53.789408105132487 ], [ 14.45608890175613, 53.789465586020476 ], [ 14.45618595560164, 53.788569320856197 ], [ 14.454672395941666, 53.788511841843061 ], [ 14.454575310038893, 53.789408105132487 ] ] ] ] } },
{ "type": "Feature", "properties": { "id": "174", "left": 200732.4743, "top": 667789.34209999989, "right": 200832.4743, "bottom": 667689.34209999989, "size": 0.0 }, "geometry": { "type": "MultiPolygon", "coordinates": [ [ [ [ 14.454672395941666, 53.788511841843061 ], [ 14.45618595560164, 53.788569320856197 ], [ 14.456283004198454, 53.787673055436571 ], [ 14.454769476594027, 53.787615578298187 ], [ 14.454672395941666, 53.788511841843061 ] ] ] ] } },
{ "type": "Feature", "properties": { "id": "175", "left": 200732.4743, "top": 667689.34209999989, "right": 200832.4743, "bottom": 667589.34209999989, "size": 0.0 }, "geometry": { "type": "MultiPolygon", "coordinates": [ [ [ [ 14.454769476594027, 53.787615578298187 ], [ 14.456283004198454, 53.787673055436571 ], [ 14.456380047546951, 53.786776789761603 ], [ 14.454866551996355, 53.786719314497915 ], [ 14.454769476594027, 53.787615578298187 ] ] ] ] } },
{ "type": "Feature", "properties": { "id": "179", "left": 200832.4743, "top": 668889.34209999989, "right": 200932.4743, "bottom": 668789.34209999989, "size": 0.0 }, "geometry": { "type": "MultiPolygon", "coordinates": [ [ [ [ 14.455118074538621, 53.7984282236174 ], [ 14.456631992175817, 53.798485704189808 ], [ 14.456729066454502, 53.79758943970441 ], [ 14.455215180892122, 53.797531961007031 ], [ 14.455118074538621, 53.7984282236174 ] ] ] ] } },
{ "type": "Feature", "properties": { "id": "180", "left": 200832.4743, "top": 668789.34209999989, "right": 200932.4743, "bottom": 668689.34209999989, "size": 0.0 }, "geometry": { "type": "MultiPolygon", "coordinates": [ [ [ [ 14.455215180892122, 53.797531961007031 ], [ 14.456729066454502, 53.79758943970441 ], [ 14.456826135482384, 53.796693174963679 ], [ 14.455312281993102, 53.796635698141237 ], [ 14.455215180892122, 53.797531961007031 ] ] ] ] } },
{ "type": "Feature", "properties": { "id": "181", "left": 200832.4743, "top": 668689.34209999989, "right": 200932.4743, "bottom": 668589.34209999989, "size": 0.0 }, "geometry": { "type": "MultiPolygon", "coordinates": [ [ [ [ 14.455312281993102, 53.796635698141237 ], [ 14.456826135482384, 53.796693174963679 ], [ 14.456923199259849, 53.795796909967599 ], [ 14.455409377841944, 53.795739435020032 ], [ 14.455312281993102, 53.796635698141237 ] ] ] ] } },
{ "type": "Feature", "properties": { "id": "182", "left": 200832.4743, "top": 668589.34209999989, "right": 200932.4743, "bottom": 668489.34209999989, "size": 0.0 }, "geometry": { "type": "MultiPolygon", "coordinates": [ [ [ [ 14.455409377841944, 53.795739435020032 ], [ 14.456923199259849, 53.795796909967599 ], [ 14.457020257787272, 53.794900644716193 ], [ 14.455506468439035, 53.7948431716434 ], [ 14.455409377841944, 53.795739435020032 ] ] ] ] } },
{ "type": "Feature", "properties": { "id": "183", "left": 200832.4743, "top": 668489.34209999989, "right": 200932.4743, "bottom": 668389.34209999989, "size": 0.0 }, "geometry": { "type": "MultiPolygon", "coordinates": [ [ [ [ 14.455506468439035, 53.7948431716434 ], [ 14.457020257787272, 53.794900644716193 ], [ 14.457117311065046, 53.794004379209461 ], [ 14.45560355378475, 53.793946908011371 ], [ 14.455506468439035, 53.7948431716434 ] ] ] ] } },
{ "type": "Feature", "properties": { "id": "184", "left": 200832.4743, "top": 668389.34209999989, "right": 200932.4743, "bottom": 668289.34209999989, "size": 0.0 }, "geometry": { "type": "MultiPolygon", "coordinates": [ [ [ [ 14.45560355378475, 53.793946908011371 ], [ 14.457117311065046, 53.794004379209461 ], [ 14.457214359093541, 53.79310811344741 ], [ 14.455700633879477, 53.793050644123952 ], [ 14.45560355378475, 53.793946908011371 ] ] ] ] } },
{ "type": "Feature", "properties": { "id": "185", "left": 200832.4743, "top": 668289.34209999989, "right": 200932.4743, "bottom": 668189.34209999989, "size": 0.0 }, "geometry": { "type": "MultiPolygon", "coordinates": [ [ [ [ 14.455700633879477, 53.793050644123952 ], [ 14.457214359093541, 53.79310811344741 ], [ 14.457311401873151, 53.79221184743006 ], [ 14.455797708723598, 53.792154379981142 ], [ 14.455700633879477, 53.793050644123952 ] ] ] ] } },
{ "type": "Feature", "properties": { "id": "186", "left": 200832.4743, "top": 668189.34209999989, "right": 200932.4743, "bottom": 668089.34209999989, "size": 0.0 }, "geometry": { "type": "MultiPolygon", "coordinates": [ [ [ [ 14.455797708723598, 53.792154379981142 ], [ 14.457311401873151, 53.79221184743006 ], [ 14.457408439404249, 53.791315581157413 ], [ 14.455894778317489, 53.791258115582963 ], [ 14.455797708723598, 53.792154379981142 ] ] ] ] } },
{ "type": "Feature", "properties": { "id": "187", "left": 200832.4743, "top": 668089.34209999989, "right": 200932.4743, "bottom": 667989.34209999989, "size": 0.0 }, "geometry": { "type": "MultiPolygon", "coordinates": [ [ [ [ 14.455894778317489, 53.791258115582963 ], [ 14.457408439404249, 53.791315581157413 ], [ 14.45750547168722, 53.79041931462946 ], [ 14.45599184266154, 53.790361850929401 ], [ 14.455894778317489, 53.791258115582963 ] ] ] ] } },
{ "type": "Feature", "properties": { "id": "188", "left": 200832.4743, "top": 667989.34209999989, "right": 200932.4743, "bottom": 667889.34209999989, "size": 0.0 }, "geometry": { "type": "MultiPolygon", "coordinates": [ [ [ [ 14.45599184266154, 53.790361850929401 ], [ 14.45750547168722, 53.79041931462946 ], [ 14.457602498722446, 53.789523047846231 ], [ 14.45608890175613, 53.789465586020476 ], [ 14.45599184266154, 53.790361850929401 ] ] ] ] } },
{ "type": "Feature", "properties": { "id": "189", "left": 200832.4743, "top": 667889.34209999989, "right": 200932.4743, "bottom": 667789.34209999989, "size": 0.0 }, "geometry": { "type": "MultiPolygon", "coordinates": [ [ [ [ 14.45608890175613, 53.789465586020476 ], [ 14.457602498722446, 53.789523047846231 ], [ 14.457699520510314, 53.788626780807725 ], [ 14.45618595560164, 53.788569320856197 ], [ 14.45608890175613, 53.789465586020476 ] ] ] ] } },
{ "type": "Feature", "properties": { "id": "190", "left": 200832.4743, "top": 667789.34209999989, "right": 200932.4743, "bottom": 667689.34209999989, "size": 0.0 }, "geometry": { "type": "MultiPolygon", "coordinates": [ [ [ [ 14.45618595560164, 53.788569320856197 ], [ 14.457699520510314, 53.788626780807725 ], [ 14.457796537051196, 53.787730513513942 ], [ 14.456283004198454, 53.787673055436571 ], [ 14.45618595560164, 53.788569320856197 ] ] ] ] } },
{ "type": "Feature", "properties": { "id": "195", "left": 200932.4743, "top": 668889.34209999989, "right": 201032.4743, "bottom": 668789.34209999989, "size": 0.0 }, "geometry": { "type": "MultiPolygon", "coordinates": [ [ [ [ 14.456631992175817, 53.798485704189808 ], [ 14.458145915064199, 53.798543165693673 ], [ 14.458242957267682, 53.79764689933387 ], [ 14.456729066454502, 53.79758943970441 ], [ 14.456631992175817, 53.798485704189808 ] ] ] ] } },
{ "type": "Feature", "properties": { "id": "196", "left": 200932.4743, "top": 668789.34209999989, "right": 201032.4743, "bottom": 668689.34209999989, "size": 0.0 }, "geometry": { "type": "MultiPolygon", "coordinates": [ [ [ [ 14.456729066454502, 53.79758943970441 ], [ 14.458242957267682, 53.79764689933387 ], [ 14.458339994222088, 53.796750632718812 ], [ 14.456826135482384, 53.796693174963679 ], [ 14.456729066454502, 53.79758943970441 ] ] ] ] } },
{ "type": "Feature", "properties": { "id": "197", "left": 200932.4743, "top": 668689.34209999989, "right": 201032.4743, "bottom": 668589.34209999989, "size": 0.0 }, "geometry": { "type": "MultiPolygon", "coordinates": [ [ [ [ 14.456826135482384, 53.796693174963679 ], [ 14.458339994222088, 53.796750632718812 ], [ 14.458437025927786, 53.795854365848484 ], [ 14.456923199259849, 53.795796909967599 ], [ 14.456826135482384, 53.796693174963679 ] ] ] ] } },
{ "type": "Feature", "properties": { "id": "198", "left": 200932.4743, "top": 668589.34209999989, "right": 201032.4743, "bottom": 668489.34209999989, "size": 0.0 }, "geometry": { "type": "MultiPolygon", "coordinates": [ [ [ [ 14.456923199259849, 53.795796909967599 ], [ 14.458437025927786, 53.795854365848484 ], [ 14.458534052385168, 53.794958098722908 ], [ 14.457020257787272, 53.794900644716193 ], [ 14.456923199259849, 53.795796909967599 ] ] ] ] } },
{ "type": "Feature", "properties": { "id": "199", "left": 200932.4743, "top": 668489.34209999989, "right": 201032.4743, "bottom": 668389.34209999989, "size": 0.0 }, "geometry": { "type": "MultiPolygon", "coordinates": [ [ [ [ 14.457020257787272, 53.794900644716193 ], [ 14.458534052385168, 53.794958098722908 ], [ 14.45863107359461, 53.794061831342091 ], [ 14.457117311065046, 53.794004379209461 ], [ 14.457020257787272, 53.794900644716193 ] ] ] ] } },
{ "type": "Feature", "properties": { "id": "200", "left": 200932.4743, "top": 668389.34209999989, "right": 201032.4743, "bottom": 668289.34209999989, "size": 0.0 }, "geometry": { "type": "MultiPolygon", "coordinates": [ [ [ [ 14.457117311065046, 53.794004379209461 ], [ 14.45863107359461, 53.794061831342091 ], [ 14.458728089556496, 53.793165563706033 ], [ 14.457214359093541, 53.79310811344741 ], [ 14.457117311065046, 53.794004379209461 ] ] ] ] } },
{ "type": "Feature", "properties": { "id": "201", "left": 200932.4743, "top": 668289.34209999989, "right": 201032.4743, "bottom": 668189.34209999989, "size": 0.0 }, "geometry": { "type": "MultiPolygon", "coordinates": [ [ [ [ 14.457214359093541, 53.79310811344741 ], [ 14.458728089556496, 53.793165563706033 ], [ 14.458825100271211, 53.792269295814748 ], [ 14.457311401873151, 53.79221184743006 ], [ 14.457214359093541, 53.79310811344741 ] ] ] ] } },
{ "type": "Feature", "properties": { "id": "202", "left": 200932.4743, "top": 668189.34209999989, "right": 201032.4743, "bottom": 668089.34209999989, "size": 0.0 }, "geometry": { "type": "MultiPolygon", "coordinates": [ [ [ [ 14.457311401873151, 53.79221184743006 ], [ 14.458825100271211, 53.792269295814748 ], [ 14.458922105739134, 53.791373027668243 ], [ 14.457408439404249, 53.791315581157413 ], [ 14.457311401873151, 53.79221184743006 ] ] ] ] } },
{ "type": "Feature", "properties": { "id": "203", "left": 200932.4743, "top": 668089.34209999989, "right": 201032.4743, "bottom": 667989.34209999989, "size": 0.0 }, "geometry": { "type": "MultiPolygon", "coordinates": [ [ [ [ 14.457408439404249, 53.791315581157413 ], [ 14.458922105739134, 53.791373027668243 ], [ 14.459019105960643, 53.790476759266532 ], [ 14.45750547168722, 53.79041931462946 ], [ 14.457408439404249, 53.791315581157413 ] ] ] ] } },
{ "type": "Feature", "properties": { "id": "204", "left": 200932.4743, "top": 667989.34209999989, "right": 201032.4743, "bottom": 667889.34209999989, "size": 0.0 }, "geometry": { "type": "MultiPolygon", "coordinates": [ [ [ [ 14.45750547168722, 53.79041931462946 ], [ 14.459019105960643, 53.790476759266532 ], [ 14.459116100936125, 53.789580490609616 ], [ 14.457602498722446, 53.789523047846231 ], [ 14.45750547168722, 53.79041931462946 ] ] ] ] } },
{ "type": "Feature", "properties": { "id": "205", "left": 200932.4743, "top": 667889.34209999989, "right": 201032.4743, "bottom": 667789.34209999989, "size": 0.0 }, "geometry": { "type": "MultiPolygon", "coordinates": [ [ [ [ 14.457602498722446, 53.789523047846231 ], [ 14.459116100936125, 53.789580490609616 ], [ 14.459213090665965, 53.788684221697501 ], [ 14.457699520510314, 53.788626780807725 ], [ 14.457602498722446, 53.789523047846231 ] ] ] ] } },
{ "type": "Feature", "properties": { "id": "213", "left": 201032.4743, "top": 668689.34209999989, "right": 201132.4743, "bottom": 668589.34209999989, "size": 0.0 }, "geometry": { "type": "MultiPolygon", "coordinates": [ [ [ [ 14.458339994222088, 53.796750632718812 ], [ 14.45985385821049, 53.796808071406481 ], [ 14.459950857844047, 53.795911802662538 ], [ 14.458437025927786, 53.795854365848484 ], [ 14.458339994222088, 53.796750632718812 ] ] ] ] } },
{ "type": "Feature", "properties": { "id": "214", "left": 201032.4743, "top": 668589.34209999989, "right": 201132.4743, "bottom": 668489.34209999989, "size": 0.0 }, "geometry": { "type": "MultiPolygon", "coordinates": [ [ [ [ 14.458437025927786, 53.795854365848484 ], [ 14.459950857844047, 53.795911802662538 ], [ 14.460047852231, 53.79501553366341 ], [ 14.458534052385168, 53.794958098722908 ], [ 14.458437025927786, 53.795854365848484 ] ] ] ] } },
{ "type": "Feature", "properties": { "id": "215", "left": 201032.4743, "top": 668489.34209999989, "right": 201132.4743, "bottom": 668389.34209999989, "size": 0.0 }, "geometry": { "type": "MultiPolygon", "coordinates": [ [ [ [ 14.458534052385168, 53.794958098722908 ], [ 14.460047852231, 53.79501553366341 ], [ 14.460144841371733, 53.794119264409112 ], [ 14.45863107359461, 53.794061831342091 ], [ 14.458534052385168, 53.794958098722908 ] ] ] ] } },
{ "type": "Feature", "properties": { "id": "216", "left": 201032.4743, "top": 668389.34209999989, "right": 201132.4743, "bottom": 668289.34209999989, "size": 0.0 }, "geometry": { "type": "MultiPolygon", "coordinates": [ [ [ [ 14.45863107359461, 53.794061831342091 ], [ 14.460144841371733, 53.794119264409112 ], [ 14.460241825266626, 53.793222994899672 ], [ 14.458728089556496, 53.793165563706033 ], [ 14.45863107359461, 53.794061831342091 ] ] ] ] } },
{ "type": "Feature", "properties": { "id": "217", "left": 201032.4743, "top": 668289.34209999989, "right": 201132.4743, "bottom": 668189.34209999989, "size": 0.0 }, "geometry": { "type": "MultiPolygon", "coordinates": [ [ [ [ 14.458728089556496, 53.793165563706033 ], [ 14.460241825266626, 53.793222994899672 ], [ 14.460338803916065, 53.792326725135077 ], [ 14.458825100271211, 53.792269295814748 ], [ 14.458728089556496, 53.793165563706033 ] ] ] ] } },
{ "type": "Feature", "properties": { "id": "218", "left": 201032.4743, "top": 668189.34209999989, "right": 201132.4743, "bottom": 668089.34209999989, "size": 0.0 }, "geometry": { "type": "MultiPolygon", "coordinates": [ [ [ [ 14.458825100271211, 53.792269295814748 ], [ 14.460338803916065, 53.792326725135077 ], [ 14.460435777320427, 53.791430455115332 ], [ 14.458922105739134, 53.791373027668243 ], [ 14.458825100271211, 53.792269295814748 ] ] ] ] } },
{ "type": "Feature", "properties": { "id": "219", "left": 201032.4743, "top": 668089.34209999989, "right": 201132.4743, "bottom": 667989.34209999989, "size": 0.0 }, "geometry": { "type": "MultiPolygon", "coordinates": [ [ [ [ 14.458922105739134, 53.791373027668243 ], [ 14.460435777320427, 53.791430455115332 ], [ 14.460532745480092, 53.790534184840467 ], [ 14.459019105960643, 53.790476759266532 ], [ 14.458922105739134, 53.791373027668243 ] ] ] ] } },
{ "type": "Feature", "properties": { "id": "220", "left": 201032.4743, "top": 667989.34209999989, "right": 201132.4743, "bottom": 667889.34209999989, "size": 0.0 }, "geometry": { "type": "MultiPolygon", "coordinates": [ [ [ [ 14.459019105960643, 53.790476759266532 ], [ 14.460532745480092, 53.790534184840467 ], [ 14.460629708395452, 53.789637914310482 ], [ 14.459116100936125, 53.789580490609616 ], [ 14.459019105960643, 53.790476759266532 ] ] ] ] } }
]
}
