{
"type": "FeatureCollection",
"name": "points_brysna_smiecka",
"crs": { "type": "name", "properties": { "name": "urn:ogc:def:crs:OGC:1.3:CRS84" } },
"features": [
{ "type": "Feature", "properties": { "id_names": "JZW01", "layer": "points_brysna — grid" }, "geometry": { "type": "Point", "coordinates": [ 14.44092034465657, 53.794651769016724 ] } },
{ "type": "Feature", "properties": { "id_names": "JZW02", "layer": "points_brysna — grid" }, "geometry": { "type": "Point", "coordinates": [ 14.441115130622066, 53.79285927779695 ] } },
{ "type": "Feature", "properties": { "id_names": "JZW03", "layer": "points_brysna — grid" }, "geometry": { "type": "Point", "coordinates": [ 14.441309895518518, 53.79106678555258 ] } },
{ "type": "Feature", "properties": { "id_names": "JZW04", "layer": "points_brysna — grid" }, "geometry": { "type": "Point", "coordinates": [ 14.443753174675882, 53.796559561756631 ] } },
{ "type": "Feature", "properties": { "id_names": "JZW05", "layer": "points_brysna — grid" }, "geometry": { "type": "Point", "coordinates": [ 14.443947853442575, 53.794767064039647 ] } },
{ "type": "Feature", "properties": { "id_names": "JZW06", "layer": "points_brysna — grid" }, "geometry": { "type": "Point", "coordinates": [ 14.444142511150895, 53.792974565298621 ] } },
{ "type": "Feature", "properties": { "id_names": "JZW07", "layer": "points_brysna — grid" }, "geometry": { "type": "Point", "coordinates": [ 14.44433714780391, 53.791182065533604 ] } },
{ "type": "Feature", "properties": { "id_names": "JZW08", "layer": "points_brysna — grid" }, "geometry": { "type": "Point", "coordinates": [ 14.444531763404685, 53.789389564744681 ] } },
{ "type": "Feature", "properties": { "id_names": "JZW09", "layer": "points_brysna — grid" }, "geometry": { "type": "Point", "coordinates": [ 14.446586261253811, 53.798467292246805 ] } },
{ "type": "Feature", "properties": { "id_names": "JZW10", "layer": "points_brysna — grid" }, "geometry": { "type": "Point", "coordinates": [ 14.446780832794234, 53.79667478803632 ] } },
{ "type": "Feature", "properties": { "id_names": "JZW11", "layer": "points_brysna — grid" }, "geometry": { "type": "Point", "coordinates": [ 14.446975383286954, 53.794882282802362 ] } },
{ "type": "Feature", "properties": { "id_names": "JZW12", "layer": "points_brysna — grid" }, "geometry": { "type": "Point", "coordinates": [ 14.447169912735037, 53.793089776544996 ] } },
{ "type": "Feature", "properties": { "id_names": "JZW13", "layer": "points_brysna — grid" }, "geometry": { "type": "Point", "coordinates": [ 14.447364421141543, 53.791297269264319 ] } },
{ "type": "Feature", "properties": { "id_names": "JZW14", "layer": "points_brysna — grid" }, "geometry": { "type": "Point", "coordinates": [ 14.447558908509544, 53.78950476096032 ] } },
{ "type": "Feature", "properties": { "id_names": "JZW15", "layer": "points_brysna — grid" }, "geometry": { "type": "Point", "coordinates": [ 14.447753374842096, 53.787712251633117 ] } },
{ "type": "Feature", "properties": { "id_names": "JZW16", "layer": "points_brysna — grid" }, "geometry": { "type": "Point", "coordinates": [ 14.449614068710646, 53.798582449772844 ] } },
{ "type": "Feature", "properties": { "id_names": "JZW17", "layer": "points_brysna — grid" }, "geometry": { "type": "Point", "coordinates": [ 14.44980851196029, 53.796789938049685 ] } },
{ "type": "Feature", "properties": { "id_names": "JZW18", "layer": "points_brysna — grid" }, "geometry": { "type": "Point", "coordinates": [ 14.450002934175966, 53.794997425303706 ] } },
{ "type": "Feature", "properties": { "id_names": "JZW19", "layer": "points_brysna — grid" }, "geometry": { "type": "Point", "coordinates": [ 14.450197335360746, 53.79320491153495 ] } },
{ "type": "Feature", "properties": { "id_names": "JZW20", "layer": "points_brysna — grid" }, "geometry": { "type": "Point", "coordinates": [ 14.450391715517688, 53.791412396743503 ] } },
{ "type": "Feature", "properties": { "id_names": "JZW21", "layer": "points_brysna — grid" }, "geometry": { "type": "Point", "coordinates": [ 14.45058607464985, 53.789619880929394 ] } },
{ "type": "Feature", "properties": { "id_names": "JZW22", "layer": "points_brysna — grid" }, "geometry": { "type": "Point", "coordinates": [ 14.450780412760297, 53.787827364092692 ] } },
{ "type": "Feature", "properties": { "id_names": "JZW23", "layer": "points_brysna — grid" }, "geometry": { "type": "Point", "coordinates": [ 14.452641897204504, 53.798697531026434 ] } },
{ "type": "Feature", "properties": { "id_names": "JZW24", "layer": "points_brysna — grid" }, "geometry": { "type": "Point", "coordinates": [ 14.452836212160303, 53.796905011795559 ] } },
{ "type": "Feature", "properties": { "id_names": "JZW25", "layer": "points_brysna — grid" }, "geometry": { "type": "Point", "coordinates": [ 14.45303050609588, 53.795112491542483 ] } },
{ "type": "Feature", "properties": { "id_names": "JZW26", "layer": "points_brysna — grid" }, "geometry": { "type": "Point", "coordinates": [ 14.453224779014297, 53.793319970267262 ] } },
{ "type": "Feature", "properties": { "id_names": "JZW27", "layer": "points_brysna — grid" }, "geometry": { "type": "Point", "coordinates": [ 14.453419030918605, 53.79152744796999 ] } },
{ "type": "Feature", "properties": { "id_names": "JZW28", "layer": "points_brysna — grid" }, "geometry": { "type": "Point", "coordinates": [ 14.453613261811872, 53.789734924650688 ] } },
{ "type": "Feature", "properties": { "id_names": "JZW29", "layer": "points_brysna — grid" }, "geometry": { "type": "Point", "coordinates": [ 14.453807471697154, 53.787942400309461 ] } },
{ "type": "Feature", "properties": { "id_names": "JZW30", "layer": "points_brysna — grid" }, "geometry": { "type": "Point", "coordinates": [ 14.455863933380545, 53.797020009272742 ] } },
{ "type": "Feature", "properties": { "id_names": "JZW31", "layer": "points_brysna — grid" }, "geometry": { "type": "Point", "coordinates": [ 14.456058099032958, 53.795227481517514 ] } },
{ "type": "Feature", "properties": { "id_names": "JZW32", "layer": "points_brysna — grid" }, "geometry": { "type": "Point", "coordinates": [ 14.456252243681948, 53.793434952740768 ] } },
{ "type": "Feature", "properties": { "id_names": "JZW33", "layer": "points_brysna — grid" }, "geometry": { "type": "Point", "coordinates": [ 14.456446367330567, 53.791642422942608 ] } },
{ "type": "Feature", "properties": { "id_names": "JZW34", "layer": "points_brysna — grid" }, "geometry": { "type": "Point", "coordinates": [ 14.456640469981876, 53.789849892123065 ] } },
{ "type": "Feature", "properties": { "id_names": "JZW35", "layer": "points_brysna — grid" }, "geometry": { "type": "Point", "coordinates": [ 14.45908571297346, 53.795342395227621 ] } },
{ "type": "Feature", "properties": { "id_names": "JZW36", "layer": "points_brysna — grid" }, "geometry": { "type": "Point", "coordinates": [ 14.459279729349968, 53.793549858954286 ] } },
{ "type": "Feature", "properties": { "id_names": "JZW37", "layer": "points_brysna — grid" }, "geometry": { "type": "Point", "coordinates": [ 14.459473724739841, 53.791757321660157 ] } },
{ "type": "Feature", "properties": { "id_names": "TPW07", "layer": "points_smiecka" }, "geometry": { "type": "Point", "coordinates": [ 14.504118841215703, 53.757028151949207 ] } },
{ "type": "Feature", "properties": { "id_names": "TPW02", "layer": "points_smiecka" }, "geometry": { "type": "Point", "coordinates": [ 14.511400090474242, 53.745591540908805 ] } },
{ "type": "Feature", "properties": { "id_names": "TPW12", "layer": "points_smiecka" }, "geometry": { "type": "Point", "coordinates": [ 14.486789553468544, 53.749537358394697 ] } },
{ "type": "Feature", "properties": { "id_names": "TPW15", "layer": "points_smiecka" }, "geometry": { "type": "Point", "coordinates": [ 14.495351970068588, 53.742485110627783 ] } },
{ "type": "Feature", "properties": { "id_names": "TPW10", "layer": "points_smiecka" }, "geometry": { "type": "Point", "coordinates": [ 14.490565019030553, 53.754789382335005 ] } },
{ "type": "Feature", "properties": { "id_names": "TPW13", "layer": "points_smiecka" }, "geometry": { "type": "Point", "coordinates": [ 14.487537886023025, 53.747045730436675 ] } },
{ "type": "Feature", "properties": { "id_names": "TPW14", "layer": "points_smiecka" }, "geometry": { "type": "Point", "coordinates": [ 14.489360851261402, 53.745018651847388 ] } },
{ "type": "Feature", "properties": { "id_names": "TPW05", "layer": "points_smiecka" }, "geometry": { "type": "Point", "coordinates": [ 14.510730117559936, 53.754271880652183 ] } },
{ "type": "Feature", "properties": { "id_names": "TPW03", "layer": "points_smiecka" }, "geometry": { "type": "Point", "coordinates": [ 14.513226311133089, 53.74865995272058 ] } },
{ "type": "Feature", "properties": { "id_names": "TPW16", "layer": "points_smiecka" }, "geometry": { "type": "Point", "coordinates": [ 14.500905627921773, 53.7419180862735 ] } },
{ "type": "Feature", "properties": { "id_names": "TPW01", "layer": "points_smiecka" }, "geometry": { "type": "Point", "coordinates": [ 14.507575939340715, 53.743228351334842 ] } },
{ "type": "Feature", "properties": { "id_names": "TPW09", "layer": "points_smiecka" }, "geometry": { "type": "Point", "coordinates": [ 14.496176681068384, 53.756974337324728 ] } },
{ "type": "Feature", "properties": { "id_names": "TPW08", "layer": "points_smiecka" }, "geometry": { "type": "Point", "coordinates": [ 14.499978419336619, 53.757366625647926 ] } },
{ "type": "Feature", "properties": { "id_names": "TPW11", "layer": "points_smiecka" }, "geometry": { "type": "Point", "coordinates": [ 14.488158116551835, 53.752474832663466 ] } },
{ "type": "Feature", "properties": { "id_names": "TPW04", "layer": "points_smiecka" }, "geometry": { "type": "Point", "coordinates": [ 14.51299622547071, 53.75138210843464 ] } },
{ "type": "Feature", "properties": { "id_names": "TPW06", "layer": "points_smiecka" }, "geometry": { "type": "Point", "coordinates": [ 14.507949676339077, 53.755895319303171 ] } },
{ "type": "Feature", "properties": { "id_names": "REF01", "layer": "refulat" }, "geometry": { "type": "Point", "coordinates": [ 14.304514680934089, 53.818871208775768 ] } },
{ "type": "Feature", "properties": { "id_names": "REF02", "layer": "refulat" }, "geometry": { "type": "Point", "coordinates": [ 14.304544443423982, 53.817073703019645 ] } },
{ "type": "Feature", "properties": { "id_names": "REF03", "layer": "refulat" }, "geometry": { "type": "Point", "coordinates": [ 14.30457420268395, 53.815276196710172 ] } },
{ "type": "Feature", "properties": { "id_names": "REF04", "layer": "refulat" }, "geometry": { "type": "Point", "coordinates": [ 14.304603958714464, 53.813478689847351 ] } },
{ "type": "Feature", "properties": { "id_names": "REF05", "layer": "refulat" }, "geometry": { "type": "Point", "coordinates": [ 14.307522777581321, 53.820686288875812 ] } },
{ "type": "Feature", "properties": { "id_names": "REF06", "layer": "refulat" }, "geometry": { "type": "Point", "coordinates": [ 14.307552413316635, 53.818888782522983 ] } },
{ "type": "Feature", "properties": { "id_names": "REF07", "layer": "refulat" }, "geometry": { "type": "Point", "coordinates": [ 14.307582045835657, 53.817091275616917 ] } },
{ "type": "Feature", "properties": { "id_names": "REF08", "layer": "refulat" }, "geometry": { "type": "Point", "coordinates": [ 14.307611675138855, 53.815293768157602 ] } },
{ "type": "Feature", "properties": { "id_names": "REF09", "layer": "refulat" }, "geometry": { "type": "Point", "coordinates": [ 14.307641301226697, 53.813496260145044 ] } },
{ "type": "Feature", "properties": { "id_names": "REF10", "layer": "refulat" }, "geometry": { "type": "Point", "coordinates": [ 14.307670924099657, 53.811698751579215 ] } },
{ "type": "Feature", "properties": { "id_names": "REF11", "layer": "refulat" }, "geometry": { "type": "Point", "coordinates": [ 14.310531134213084, 53.822501293793898 ] } },
{ "type": "Feature", "properties": { "id_names": "REF12", "layer": "refulat" }, "geometry": { "type": "Point", "coordinates": [ 14.31056064316561, 53.820703786849194 ] } },
{ "type": "Feature", "properties": { "id_names": "REF13", "layer": "refulat" }, "geometry": { "type": "Point", "coordinates": [ 14.31059014891548, 53.818906279351353 ] } },
{ "type": "Feature", "properties": { "id_names": "REF14", "layer": "refulat" }, "geometry": { "type": "Point", "coordinates": [ 14.310619651463158, 53.817108771300383 ] } },
{ "type": "Feature", "properties": { "id_names": "REF15", "layer": "refulat" }, "geometry": { "type": "Point", "coordinates": [ 14.310649150809111, 53.815311262696262 ] } },
{ "type": "Feature", "properties": { "id_names": "REF16", "layer": "refulat" }, "geometry": { "type": "Point", "coordinates": [ 14.310678646953813, 53.813513753538992 ] } },
{ "type": "Feature", "properties": { "id_names": "REF17", "layer": "refulat" }, "geometry": { "type": "Point", "coordinates": [ 14.310708139897727, 53.811716243828542 ] } },
{ "type": "Feature", "properties": { "id_names": "REF18", "layer": "refulat" }, "geometry": { "type": "Point", "coordinates": [ 14.310737629641327, 53.809918733564921 ] } },
{ "type": "Feature", "properties": { "id_names": "REF19", "layer": "refulat" }, "geometry": { "type": "Point", "coordinates": [ 14.313569133000058, 53.822518715983286 ] } },
{ "type": "Feature", "properties": { "id_names": "REF20", "layer": "refulat" }, "geometry": { "type": "Point", "coordinates": [ 14.313598511952563, 53.820721207898501 ] } },
{ "type": "Feature", "properties": { "id_names": "REF21", "layer": "refulat" }, "geometry": { "type": "Point", "coordinates": [ 14.313627887716516, 53.818923699260701 ] } },
{ "type": "Feature", "properties": { "id_names": "REF22", "layer": "refulat" }, "geometry": { "type": "Point", "coordinates": [ 14.313657260292379, 53.81712619006985 ] } },
{ "type": "Feature", "properties": { "id_names": "REF23", "layer": "refulat" }, "geometry": { "type": "Point", "coordinates": [ 14.313686629680623, 53.815328680325955 ] } },
{ "type": "Feature", "properties": { "id_names": "REF23", "layer": "refulat" }, "geometry": { "type": "Point", "coordinates": [ 14.313715995881712, 53.813531170029002 ] } },
{ "type": "Feature", "properties": { "id_names": "REF24", "layer": "refulat" }, "geometry": { "type": "Point", "coordinates": [ 14.313745358896115, 53.811733659178977 ] } },
{ "type": "Feature", "properties": { "id_names": "REF25", "layer": "refulat" }, "geometry": { "type": "Point", "coordinates": [ 14.313774718724295, 53.809936147775858 ] } },
{ "type": "Feature", "properties": { "id_names": "REF26", "layer": "refulat" }, "geometry": { "type": "Point", "coordinates": [ 14.316607134976051, 53.82253606124339 ] } },
{ "type": "Feature", "properties": { "id_names": "REF27", "layer": "refulat" }, "geometry": { "type": "Point", "coordinates": [ 14.316636383928069, 53.82073855202357 ] } },
{ "type": "Feature", "properties": { "id_names": "REF28", "layer": "refulat" }, "geometry": { "type": "Point", "coordinates": [ 14.316665629705637, 53.818941042250827 ] } },
{ "type": "Feature", "properties": { "id_names": "REF29", "layer": "refulat" }, "geometry": { "type": "Point", "coordinates": [ 14.316694872309222, 53.81714353192514 ] } },
{ "type": "Feature", "properties": { "id_names": "REF30", "layer": "refulat" }, "geometry": { "type": "Point", "coordinates": [ 14.316724111739289, 53.815346021046501 ] } },
{ "type": "Feature", "properties": { "id_names": "REF31", "layer": "refulat" }, "geometry": { "type": "Point", "coordinates": [ 14.316753347996301, 53.81354850961489 ] } },
{ "type": "Feature", "properties": { "id_names": "REF32", "layer": "refulat" }, "geometry": { "type": "Point", "coordinates": [ 14.316782581080723, 53.81175099763032 ] } },
{ "type": "Feature", "properties": { "id_names": "REF33", "layer": "refulat" }, "geometry": { "type": "Point", "coordinates": [ 14.31681181099302, 53.809953485092748 ] } },
{ "type": "Feature", "properties": { "id_names": "REF34", "layer": "refulat" }, "geometry": { "type": "Point", "coordinates": [ 14.319674259078022, 53.820755819224217 ] } },
{ "type": "Feature", "properties": { "id_names": "REF35", "layer": "refulat" }, "geometry": { "type": "Point", "coordinates": [ 14.319703374868743, 53.818958308321569 ] } },
{ "type": "Feature", "properties": { "id_names": "REF36", "layer": "refulat" }, "geometry": { "type": "Point", "coordinates": [ 14.319732487499584, 53.817160796866084 ] } },
{ "type": "Feature", "properties": { "id_names": "REF37", "layer": "refulat" }, "geometry": { "type": "Point", "coordinates": [ 14.319761596971009, 53.815363284857725 ] } },
{ "type": "Feature", "properties": { "id_names": "REF38", "layer": "refulat" }, "geometry": { "type": "Point", "coordinates": [ 14.319790703283479, 53.813565772296499 ] } },
{ "type": "Feature", "properties": { "id_names": "REF39", "layer": "refulat" }, "geometry": { "type": "Point", "coordinates": [ 14.319819806437456, 53.811768259182394 ] } },
{ "type": "Feature", "properties": { "id_names": "REF40", "layer": "refulat" }, "geometry": { "type": "Point", "coordinates": [ 14.319848906433407, 53.8099707455154 ] } },
{ "type": "Feature", "properties": { "id_names": "REF41", "layer": "refulat" }, "geometry": { "type": "Point", "coordinates": [ 14.322741123191728, 53.818975497472742 ] } },
{ "type": "Feature", "properties": { "id_names": "REF42", "layer": "refulat" }, "geometry": { "type": "Point", "coordinates": [ 14.322770105849363, 53.817177984892474 ] } },
{ "type": "Feature", "properties": { "id_names": "REF43", "layer": "refulat" }, "geometry": { "type": "Point", "coordinates": [ 14.322799085361684, 53.815380471759433 ] } },
{ "type": "Feature", "properties": { "id_names": "REF44", "layer": "refulat" }, "geometry": { "type": "Point", "coordinates": [ 14.322828061729149, 53.813582958073638 ] } },
{ "type": "Feature", "properties": { "id_names": "REF45", "layer": "refulat" }, "geometry": { "type": "Point", "coordinates": [ 14.322857034952222, 53.811785443835035 ] } },
{ "type": "Feature", "properties": { "id_names": "REF46", "layer": "refulat" }, "geometry": { "type": "Point", "coordinates": [ 14.322886005031359, 53.809987929043658 ] } },
{ "type": "Feature", "properties": { "id_names": "REF47", "layer": "refulat" }, "geometry": { "type": "Point", "coordinates": [ 14.325836576897212, 53.815397581751469 ] } },
{ "type": "Feature", "properties": { "id_names": "REF48", "layer": "refulat" }, "geometry": { "type": "Point", "coordinates": [ 14.325865423319211, 53.813600066946115 ] } },
{ "type": "Feature", "properties": { "id_names": "REF49", "layer": "refulat" }, "geometry": { "type": "Point", "coordinates": [ 14.32589426661092, 53.811802551588066 ] } },
{ "type": "Feature", "properties": { "id_names": "REF50", "layer": "refulat" }, "geometry": { "type": "Point", "coordinates": [ 14.325923106772786, 53.810005035677314 ] } },
{ "type": "Feature", "properties": { "id_names": "REF51", "layer": "refulat" }, "geometry": { "type": "Point", "coordinates": [ 14.328902788039573, 53.81361709891376 ] } },
{ "type": "Feature", "properties": { "id_names": "REF52", "layer": "refulat" }, "geometry": { "type": "Point", "coordinates": [ 14.328931501399454, 53.811819582441288 ] } },
{ "type": "Feature", "properties": { "id_names": "REF53", "layer": "refulat" }, "geometry": { "type": "Point", "coordinates": [ 14.328960211643592, 53.810022065416213 ] } },
{ "type": "Feature", "properties": { "id_names": "REF54", "layer": "refulat" }, "geometry": { "type": "Point", "coordinates": [ 14.331968739303731, 53.811836536394544 ] } },
{ "type": "Feature", "properties": { "id_names": "REF55", "layer": "refulat" }, "geometry": { "type": "Point", "coordinates": [ 14.331997319629686, 53.81003901826017 ] } },
{ "type": "Feature", "properties": { "id_names": "REF56", "layer": "refulat" }, "geometry": { "type": "Point", "coordinates": [ 14.335034430716972, 53.810055894209007 ] } },
{ "type": "Feature", "properties": { "id_names": "REF57", "layer": "refulat" }, "geometry": { "type": "Point", "coordinates": [ 14.33506287803719, 53.808258374417939 ] } },
{ "type": "Feature", "properties": { "id_names": "REF58", "layer": "refulat" }, "geometry": { "type": "Point", "coordinates": [ 14.338128176649246, 53.806477650929786 ] } },
{ "type": "Feature", "properties": { "id_names": "LUB01", "layer": "lubczyn" }, "geometry": { "type": "Point", "coordinates": [ 14.691396353958028, 53.508775961991851 ] } },
{ "type": "Feature", "properties": { "id_names": "LUB02", "layer": "lubczyna" }, "geometry": { "type": "Point", "coordinates": [ 14.690042002767328, 53.506365927155194 ] } },
{ "type": "Feature", "properties": { "id_names": "BIE01", "layer": "bielinek" }, "geometry": { "type": "Point", "coordinates": [ 14.152192693897328, 52.953856186523261 ] } },
{ "type": "Feature", "properties": { "id_names": "BIE02", "layer": "bielinek" }, "geometry": { "type": "Point", "coordinates": [ 14.14980058390783, 52.952645361515948 ] } }
]
}
